,,biglietto intero,biglietto ridotto,cap,casa museo,categoria,comune,denominazione,indirizzo,latitudine,longitudine,note,omr,orari,provincia,q1.10 sa email museo istituto,q1.11 sa sito web museo istituto,q1.3 sa localita museo istituto,q1.4 sa ubicazione/edificio museo istituto,q1.9 sa fax museo istituto,scheda,sistema museale tematico,sistema museale territoriale,statale non statale,telefono
Lazio,0,,,1010.0,,,farnese,museo civico ferrante rittatore vonwiller,via colle san martino 16,42.5498,11.72706,,omr,,viterbo,museofarnesevirgilio.it museofarnesesimulabo.it,www.simulabo.it,farnese,,761458849,,proust,sistema museale del lago di bolsena,non mibact,761458849
Lazio,1,,,124.0,,,roma,ecomuseo del litorale romano,via del fosso di dragoncello 172,41.746559999999995,12.31766,,omr,,roma,crt.ecomuseotin.it,www.ecomuseocrt.it,longarina/ostia,area impianto idrovoro di ostia antica,65650609,,,,non mibact,65651764
Lazio,2,,,3010.0,,,collepardo,abbazia di trisulti,via trisulti 8,41.76406,13.37067,,,,frosinone,,,,,,,,,mibact,77547024
Lazio,3,,,143.0,,,roma,museo storico della motorizzazione militare dellesercito,viale dellesercito 170,41.805890000000005,12.49709,,,,roma,museocomlogpro.esercito.difesa.it,www.comlogpro.esercito.difesa.it,cecchignola,caserma arpaia,06 50237374,,,,non mibact,06 50237374
Lazio,4,,,144.0,,,roma,museo storico della comunicazione,viale europa 190,41.83129,12.46763,,,,roma,museo.comunicazionisviluppoeconomico.gov.it,www.sviluppoeconomico.gov.it/museo,,eur ministero dello sviluppo economico,06 54221673,,,,non mibact,06 54443000
Lazio,5,,,178.0,,,roma,complesso di capo di bove,via appia antica 222,41.84397,12.529739999999999,,,,roma,,htpp//www.archeoroma.beniculturali.it,,area archeologica presso villa/casale lungo la via appia antica,678358742,,,,mibact,67806686
Lazio,6,,,186.0,,sistema musei in comune,roma,musei capitolini,piazza del campidoglio 1,41.89335,12.4829,,omr,,roma,info.museicapitolinicomune.roma.it,www.museicapitolini.org,,c/o palazzo palazzo dei conservatori palazzo nuovo palazzo caffarelli palazzo clementino palazzo senatorio,66785488,,,,non mibact,667102475
Lazio,7,,,186.0,,,roma,museo teatrale siae del burcardo,via del sudario 44,41.89597,12.475530000000001,,,,roma,biblioteca.burcardosiae.it,,,,668194727,,,,non mibact,66819471
Lazio,8,,,186.0,,,roma,museo criminologico,via del gonfalone 29,41.897729999999996,12.46664,,,,roma,museo.criminologicogiustizia.it,www.museocriminologico.it,,,668215347,,,,non mibact,668899442
Lazio,9,,,186.0,,,roma,museo darte sacra di san giovanni dei fiorentini,via degli acciaioli 2,41.899809999999995,12.464369999999999,,omr,,roma,infosangiovannideifiorentini.net,www.sangiovannideifiorentini.net/index.php/museo/,,chiesa di san giovanni dei fiorentini,,,,,non mibact,06 6869892
Lazio,10,,,53.0,,,cerveteri,necropoli della banditaccia,piazzale mario moretti gi della necropoli,42.00724,12.103660000000001,,,,roma,sba embeniculturali.it,htpp//etruriameridionale.beniculturali.it,,,69940001,,,,mibact,69940001
Lazio,11,,,22.0,,,anticoli corrado,civico museo darte moderna e contemporanea,piazza santa vittoria 2,42.01028,12.9882,,,,roma,museoanticolihotmail.it,,anticoli corrado,edificio,774936657,,,sistema medaniene,non mibact,774936657
Lazio,12,,,188.0,,,roma,complesso archeologico di malborghetto,via barlassina 1,42.052170000000004,12.48683,,,,roma,,www.archeoroma.it,via flaminia km 1900,,633616477,,,,mibact,633625595
Lazio,13,,,60.0,,,mazzano romano,museo civico archeologico virtuale di narce mavna,piazza giovanni xxiii 12,42.20442,12.39963,,omr,,roma,infomavna.it,www.mavna.it,,,,,,,non mibact,
Lazio,14,,,1032.0,,,caprarola,palazzo farnese,piazzale farnese 1,42.32799,12.23776,,,,viterbo,,,,,0761 646052,,,,mibact,0761 646052
Lazio,15,,,2100.0,,,rieti,museo diocesano,via cintia 83,42.402409999999996,12.858369999999999,,,,rieti,diocesi rietilibero.it,www.museodiocesanorieti.it,,,746200228,,,,non mibact,746482720
Lazio,16,,,1100.0,,sistema museale urbano di viterbo,viterbo,museo del sodalizio dei facchini di santa rosa,via s. pellegrino 60 62,42.41386,12.1059,,omr,,viterbo,,,,,,,,,non mibact,761345157
Lazio,17,,,4020.0,,,ventotene,museo storico archeologico comunale,piazza castello 1,40.796358000000005,13.432965,,omr,,latina,riservaventotenecomune.ventotene.lt.it,www.riservaventotene.it,ventotene,forte torre borbonico sede comunale,771854061,,,,non mibact,771854226
Lazio,18,,,4023.0,,,formia,museo archeologico nazionale,via vitruvio 184,41.255707,13.6061587,,,,latina,sba laz.museoformiabeniculturali.it,www.archeolz.arti.beniculturali.it,,palazzo comunale,0771 770382,,,,mibact,0771 770382
Lazio,19,,,4100.0,,,latina,museo civico duilio cambellotti,piazza san marco 1,41.464299,12.9041746,,omr,,latina,museicomune.latina.it,,,,773652640,,musart,,non mibact,773486913
Lazio,20,,,4018.0,,,sezze,museo lepino della civilta contadina,via piemonte 35,41.495245000000004,13.044572,,,,latina,alessandrodinormalibero.it,,sezze scalo,,773876154,,,,non mibact,773876154
Lazio,21,,,4018.0,,,sezze,museo etnografico del giocattolo territoriale,via umberto primo 46/48,41.498302,13.060682,,omr,,latina,ludotecacomune.sezze.lt.it,,,ludoteca comunale,773803797,,demos,,non mibact,773803797
Lazio,22,,,4018.0,,,sezze,museo etnografico del giocattolo ludus,via umberto i 46/48,41.498302,13.060682,,omr,,latina,museinsieme.sezzegmail.com,www.comune.sezze.lt.it/pagina432 museo del giocattolo.html,,palazzo rappini,0773 808403,,,sistema dei monti lepini,non mibact,0773 8081.402 339 7879255
Lazio,23,,,4010.0,,,roccagorga,etnomuseo monti lepini,piazza risorgimento 4,41.524705,13.156568,,omr,,latina,infoetnomuseo.it,www.etnomuseo.it,,palazzo baronale,773960000,,demos,sistema dei monti lepini,non mibact,773958792
Lazio,24,,,4010.0,,,roccagorga,museo civico assi dellaeronautica,via domenico menta,41.524963,13.1573663,,,,latina,comune.roccagorgalibero.it,,roccagorga,edificio scolastico giuseppe restaini,773960170,,,,non mibact,773959098
Lazio,25,,,3024.0,,,ceprano,museo civico archeologico di gregellae,corso della repubblica,41.545371,13.5160425,,omr,,frosinone,museo.cepranolibero.it,,ceprano,sede comunale,775912754,,,,non mibact,7759174237
Lazio,26,,,4010.0,,,bassiano,museo delle scritture aldo manuzio,via aldo manuzio 117,41.549186999999996,13.032689999999999,,omr,,latina,mdscomune.bassiano.lt.it,,bassiano,,773355013,,demos,,non mibact,773355013
Lazio,27,,,3032.0,,,arce,museo territoriale gente di ciociaria,piazza umberto i snc,41.587742,13.5742208,,,,frosinone,infoxvcomunitamontanalazio.it,www.xvcomunitamontanalazio.it,,,776524092,,,,non mibact,776523171
Lazio,28,,,49.0,,sistema museale urbano di velletri,velletri,museo diocesano velletri,corso della repubblica 347,41.682846999999995,12.775827,,omr,,roma,museomuseodiocesanovelletri.com,www.museodiocesanovelletri.it,velletri,palazzo vescovile,69628838,,,,non mibact,69628838
Lazio,29,,,49.0,,sistema museale urbano di velletri,velletri,museo civico archeologico oreste nardini,via g.mameli 6,41.686284,12.7770344,,omr,,roma,museo.civicocomune.velletri.rm.it,www.velletrimusei.it,velletri,palazzo comunale,696158239,,proust,,non mibact,696158268
Lazio,30,,,37.0,,,segni,museo archeologico comunale di segni,via lauri 1,41.692865000000005,13.023669900000002,,omr,,roma,infomuseosegni.it,www.museosegni.it,,antico palazzo della comunit,697.260.072,,proust,sistema dei monti lepini,non mibact,697.260.072
Lazio,31,,,40.0,,,nemi,museo delle navi romane di nemi,via diana 15/19,41.720303,12.683235,,,,roma,sba laz.nemi.museonaviromanebeniculturali.it,www.archeolz.arti.beniculturali.it,nemi lago,,06 9398040,,,,mibact,06 9398040
Lazio,32,,,40.0,,,ariccia,museo del barocco di palazzo chigi di ariccia,piazza di corte 14,41.720918,12.6716841,,omr,,roma,infopalazzochigiariccia.it,www.palazzochigiariccia.it,,palazzo chigi,69330988,,,,non mibact,69330053
Lazio,33,,,3011.0,,,alatri,museo civico,corso cavour 3,41.726062,13.343724900000002,,omr,,frosinone,comune alatrilibero.it culturaeturismocomune.alatri.fr.it,,,allinterno del centro storico di alatri,775459009,,proust,,non mibact,0775459009 07754481 comune
Lazio,34,,,3012.0,,,anagni,museo del tesoro della cattedrale e lapidario,via leone xiii 5,41.742697,13.1622,,,,frosinone,anagnicattedralelibero.it,www.anagnicattedrale.org,,c/o cattedrale di anagni,7755728374,,,,non mibact,775728374
Lazio,35,,,3012.0,,,anagni,mostra permanente tommaso gismondi,piazza innocenzo iii 25,41.742993,13.161588,,,,frosinone,,,,,775727856,,,,non mibact,775727856
Lazio,36,,,54.0,,,fiumicino,necropoli di porto isola sacra,via di monte spinoncia 52,41.767072,12.265684,,,,roma,,,,,,,,,mibact,66583888
Lazio,37,,,3010.0,,,vico nel lazio,museo alla pace i nuovi primitivi,via guglielmo marconi 56,41.777896000000005,13.342014,,,,frosinone,luciano.dabbruzzoalice.it,,,c/o palazzo del governatore,775418932,,,,non mibact,77541662
Lazio,38,,,178.0,,,roma,museo delle carrozze depoca,via andrea millevoi 693,41.817136,12.519055999999999,,omr,,roma,infolecarrozzadepoca.it,,roma cecchignola est,,651958112,,,,non mibact,651958112
Lazio,39,,,144.0,,,roma,museo nazionale delle arti e tradizioni popolari,piazza marconi 8/10,41.832485999999996,12.4718655,,,,roma,ic dbeniculturali.it,www.idea.mat.beniculturali.it,,,65911848,,,,mibact,65926148
Lazio,40,,,144.0,,,roma,museo nazionale preistorico ed etnografico l. pigorini,piazza guglielmo marconi 14,41.832485999999996,12.4718655,,,,roma,s mnpebeniculturali.it,www.pigorini.beniculturali.it,eur,palazzo delle scienze,654952310,,,,mibact,6549521
Lazio,41,,,39.0,,,zagarolo,museo demoetnoantropologico del giocattolo,piazza indipendenza,41.838194,12.8308964,,omr,,roma,infomuseogiocattolo.it,www.museogiocattolo.it,zagarolo,palazzo ruspigliosi,69524572,,,sistema museale dei castelli romani e prenestini museumgrandtour,non mibact,695769405
Lazio,42,,,30.0,,,rocca di cave,museo geo paleontologico ardito desio,piazza della torre 11,41.847297,12.945667,,omr,,roma,hipparcos.cdstiscali.it,www.museiresina.it/museodesio.htlm,rocca,,06 9584023,,resina,,non mibact,06 9584098
Lazio,43,,,153.0,,sistema musei in comune,roma,museo della repubblica romana e della memoria garibaldina,largo di porta s.pancrazio 9,41.888509,12.4617041,,omr,,roma,mara.minasicomune.roma.it,www.museodellarepubblicaromana.it,porta san pancrazio,c/o complesso monumentale di porta s.pancrazio,658157153,,,,non mibact,65894575
Lazio,44,,,186.0,,,roma,crypta balbi,via delle botteghe oscure 31,41.894932,12.4783617,,,,roma,laura.vendittellibeniculturali.it,www.archeoroma.beniculturali.it,,,669776728,,,,mibact,66977671
Lazio,45,,,187.0,,,roma,galleria colonna srl,piazza santi apostoli 66,41.897162,12.483499400000001,,,,roma,infogalleriacolonna.it,www.galleriacolonna.it,,,66794638,,,,non mibact,66784350
Lazio,46,,,193.0,,,roma,museo storico nazionale dellarte sanitaria,lungotevere in sassia 3,41.900853000000005,12.4630335,,,,roma,segreteria.asasgmail.com,,,,66833485,,,,non mibact,66893051
Lazio,47,,,163.0,,,roma,museo francescano dellistituto storico dei cappuccini,circonvallazione occidentale 6850,41.914376000000004,12.384941099999999,,,,roma,yteklemayahoo.com,www.istcap.org,gra km 65.50,collegio s. lorenzo da brindisi,666052532,,,,non mibact,6660521
Lazio,48,,,20.0,,,vallepietra,museo civico degli ex voto,piazza italia 2,41.926836,13.230927,,,,roma,infocomunevallepietra.it,,,municipio,774899150,,,,non mibact,774899031
Lazio,49,,,19.0,,,tivoli,villa deste,piazza trento 5,41.962238,12.796944900000002,,,,roma,villadestetivolitiscalinet.it,www.villadestetivoli.info,,,0774 318080,,,,mibact,774312070
Lazio,50,,,20.0,,,cervara di roma,museo della montagna,via verdi snc,41.988214,13.067661900000001,,omr,,roma,cervaradiroma.comunevirgilio.it,,,,774828762,,,,non mibact,774828275
Lazio,51,,,10.0,,,san polo dei cavalieri,castello baronale orsini cesi di san polo dei cavalieri,via santa lucia 4,42.009771,12.83867,,,,roma,amministrazioneenergydi.it,,,,774426249,,,,non mibact,774426133
Lazio,52,,,50.0,,,santa marinella,museo civico archeologico,via del castello di santa severa,42.017093,11.958993699999999,,omr,,roma,muspyrgitiscali.it,,santa severa,castello di santa severa,766570077,,proust,,non mibact,766570077
Lazio,53,,,18.0,,,palombara sabina,abbazia di san giovanni in argentella,via san giovanni in argentella 96,42.055555,12.752177,,,,roma,alessandraziellilibero.it,,,,77466093,,,,non mibact,77466093
Lazio,54,,,62.0,,,bracciano,castello odescalchi,piazza mazzini 14,42.104242,12.17703,,,,roma,castelloodescalchi.it,,,,699802380,,,,non mibact,699802379
Lazio,55,,,60.0,,,capena,museo civico torre dellorologio,piazza san luca 1,42.140007000000004,12.5400069,,,,roma,servizisocialicomunedicapena.it,www.comunedicapena.it,capena,via montebello,69074301,,,,non mibact,690376025
Lazio,56,,,2032.0,,,fara in sabina,museo civico archeologico di fara sabina,piazza duomo 3,42.209457,12.728759,,omr,,rieti,marialuisaagnenivirgilio.it,www.sabinideltevere.it,fara sabina,,765277321,,,,non mibact,7652779211
Lazio,57,,,2039.0,,,toffia,museo maria petrucci,via della rocca 21,42.212187,12.752794999999999,,,,rieti,petruccimariagmail.com,www.mariapetrucci.it,,,765326248,,,,non mibact,765326248
Lazio,58,,,2031.0,,,castelnuovo di farfa,museo dellolio della sabina,via perelli 1,42.231967,12.742877,,omr,,rieti,museoliosabinalibero.it,,,palazzo perelli,76536370,,musart,,non mibact,76536370
Lazio,59,,,1010.0,,,barbarano romano,museo etrusco,piazza santangelo 2,42.251118,12.0663609,,,,viterbo,,,,,,,resina,,non mibact,761414531
Lazio,60,,,1033.0,,,civita castellana,comune di civita castellana museo della ceramica casimiro marcantoni,via a. gramsci 3,42.288378,12.4153931,,,,viterbo,comune.civitacastellanalegalmail.it,www.comune.civitacastellana.vt.it,,ex chiesa di san giorgio,761517253,,,,non mibact,7615901
Lazio,61,,,2010.0,,,borgo velino,museo civico,piazza umberto i 33,42.405916,13.058259,,,,rieti,comune.borgovelinolibero.it,,borgo velino,,746578525,,musart,,non mibact,746578896
Lazio,62,,,1100.0,,sistema museale urbano di viterbo,viterbo,nuseo del colle del duomo,piazza s. lorenzo 8a,42.415647,12.101644,,omr,,viterbo,museocolledelduomolibero.it,www.museocolledelduomo.it,,,,,,,non mibact,3477010187
Lazio,63,,,2013.0,,,antrodoco,museo storico militare alpini forze armate alpino cav. emanuele galgani,via del ponte 8,42.417383,13.080082,,,,rieti,culturaesportcomunediantrodoco.it,www.comunediantrodoco.it,antrodoco,palazzo blasetti,0746 578623,,,,non mibact,0746 578185
Lazio,64,,,1011.0,,,canino,museo archeologico di vulci,,42.440952,11.6840589,,,,viterbo,sba embeniculturali.it,http//etruriameridionale.beniculturali.it,localit vulci,castello dellabbadia,0761 437787,,,,mibact,0761 437787
Lazio,65,,,1027.0,,,montefiascone,museo dellarchitettura di antonio da sangallo il giovane,piazza della rocca,42.536852,12.027624900000001,,omr,,viterbo,museosangallocomune.montefiascone.vt.it,,,rocca dei papi,0761 820884,,musart,sistema museale del lago di bolsena,non mibact,0761 832060
Lazio,66,,,1022.0,,,bagnoregio,associazione storico culturale piero taruffi,via fidanza 55,42.626948999999996,12.0974162,,,,viterbo,museotaruffilibero.it,www.museotaruffi.it,bagnoregio,,761780811,,,,non mibact,761780811
Lazio,67,,,4020.0,,,ventotene,museo della migrazione,,40.798309700000004,13.432063699999999,,omr,,latina,museoimigrazioneventotenegmail.com,,loc. il semaforo,,,,resina,,non mibact,0771 85275 / 340 5412447
Lazio,68,,,4027.0,,,ponza,museo comunale di ponza,via roma,40.8948998,12.9663529,,,,latina,,www.comune.ponza.lt.it,ponza,,771809718,,,,non mibact,77180108
Lazio,69,,,4024.0,,,gaeta,museo de centro storico culturale gaeta,via annunziata 7,41.2126028,13.580416399999999,,,,latina,centrostoriculttiscali.it,,gaeta,complesso ss. annunziata,,,,,non mibact,771464293
Lazio,70,,,4017.0,,,san felice circeo,mostra permanente homo sapiens e habitat,piazza lanzuisi 1,41.232826200000005,13.0884991,,,,latina,zeirobertolibero.it,www.fondazionemarcellozei.com,san felice circeo,c/o torre dei templari,,,,,non mibact,3477896233
Lazio,71,,,4019.0,,,terracina,museo civico archeologico pio capponi,piazza del municipio snc,41.2914632,13.248725899999998,,omr,,latina,direttoremuseocomune.terracina.lt.it,,,palazzo comunale torre frumentaria,773707278,,proust,,non mibact,0773707313 07737072
Lazio,72,,,4016.0,,,sabaudia,museo del mare e della costa m. zei,piazza verbania 1,41.2983266,13.0297036,,omr,,latina,museomarecostacomune.sabaudia.latina.it,www.comune.sabaudia.latina.it,sabaudia,,773514258,,,,non mibact,773511340
Lazio,73,,,4016.0,,,sabaudia,museo civico emilio greco,piazza del comune,41.300312100000006,13.025636500000001,,,,latina,ufficioculturacomune.sabaudia.latina.it,www.comune.sabaudia.latina.it,sabaudia,palazzo comunale,773518923,,,,non mibact,773514258
Lazio,74,,,4010.0,,,sonnino,museo delle terre di confine,via giacomo antonelli 1,41.414700200000006,13.2402083,,omr,,latina,museoterrediconfinegmail.com,,sonnino,,773908600,,demos,,non mibact,329 8880509
Lazio,75,,,4100.0,,,latina,antiquarium comunale procojo,strada foce verde 53,41.429073200000005,12.8210546,,omr,,latina,museicomune.latina.it,,borgo sabotino,,773652640,,proust,,non mibact,773655060
Lazio,76,,,42.0,,,anzio,museo civico archeologico,via di villa adele 2,41.450351700000006,12.6302093,,omr,,roma,museoarcheologicocomune.anzio.roma.it,www.regione.lazio.it/musei/anzio/index.php,anzio,villa adele,698499408,,proust,,non mibact,698499479
Lazio,77,,,48.0,,,nettuno,antiquarium comunale,via antonio gramsci 5,41.4566239,12.656026400000002,,omr,,roma,direttore.antiquariumcomune.nettuno.roma.it,http//beni culturali.provincia.roma.it/content/museo civico antiquarium comunale,,forte sangallo,,,,,non mibact,06 98889553
Lazio,78,,,4100.0,,,latina,galleria civica darte moderna e contemporanea,via umberto i 39,41.4632735,12.9056386,,omr,,latina,museicomune.latina.it,,,palazzo della cultura,773652640,,musart,,non mibact,773652624
Lazio,79,,,4100.0,,,latina,museo m. valeriani della numismatica della medaglia della grafica incisa e della fotografia,via umberto i 39/41,41.4632735,12.9056386,,,,latina,museicomune.latina.it,,,palazzo della cultura,773652640,,musart,,non mibact,773652633
Lazio,80,,,3020.0,,,vallecorsa,museo demoetnoantropologico,via g. marconi 1,41.4656446,13.336519199999998,,,,frosinone,vallecorsalibero.it,,,chiesa santantonio,775679867,,demos,,non mibact,775679017
Lazio,81,,,4100.0,,,latina,museo della terra pontina,piazza del quadrato 24,41.466362700000005,12.8986859,,,,latina,museo.terrapontinahotmail.it,,,c/o palazzo ex onc.,773400088,,,,non mibact,773400088
Lazio,82,,,3020.0,,,pastena,museo della civilta contadina e dellulivo,via porta napoli snc,41.46718320000001,13.4909669,,,,frosinone,museomuseodipastena.it,www.museodipastena.it,pastena,,776546261,,demos,,non mibact,776546006
Lazio,83,,,4015.0,,sistema museale urbano di priverno,priverno,museo civico archeologico,piazza giovanni xxiii,41.47356129999999,13.181761199999999,,omr,,latina,musarchprivernolibero.it,,priverno,palazzo valeriani guarini,773905065,,proust,sistema dei monti lepini,non mibact,773905065
Lazio,84,,,3043.0,,,cassino,museo multimediale historiale di cassino,via san marco 23,41.4838568,13.828682999999998,,,,frosinone,infomuseohistoriale.org,www.museohistoriale.org,cassino,,77622996,,,,non mibact,776313852
Lazio,85,,,3044.0,,,cervaro,museo dellarte orafa,piazza colle 1,41.4893784,13.882477100000001,,,,frosinone,servizisocialicomune.cervaro.sr.it,www.comune.cervaro.fr.it,,,776366354,,,,non mibact,776367001
Lazio,86,,,3043.0,,,cassino,museo dellabbazia di montecassino,,41.4907889,13.833377599999999,,omr,,frosinone,infoabbaziamontecassino.org,www.abbaziamontecassino.org,via montecassino,abbazia di montecassino,,,,,non mibact,0776 311529
Lazio,87,,,4018.0,,,sezze,museo diocesano,,41.4994158,13.0617578,,omr,,latina,archiviocapitolarelibero.it,,palazzo dei canonici,,,,musart,,non mibact,0773 886358 0773 6986105
Lazio,88,,,3020.0,,,castro dei volsci,museo civico archeologico,via antonino carnevale 24,41.5155229,13.402265599999998,,,,frosinone,museo archeolibero.it,,madonna del piano,edificio unico ed autonomo,775610128,,,,non mibact,775686829
Lazio,89,,,4013.0,,,sermoneta,museo della storia della ceramica,corso garibaldi,41.548769899999996,12.9868556,,,,latina,sermonetaculturavirgilio.it,,,palazzo caetani,77330010,,,,non mibact,77330151
Lazio,90,,,3030.0,,,colle san magno,museo vivo della memoria,via roma 66,41.5513756,13.6955016,,omr,,frosinone,museovivodellamemoriagmail.com,www.museovivodellamemoria.it/,,,,,,,non mibact,0776 560051
Lazio,91,,,4010.0,,,norma,museo del cioccolato antica norba,via capo dellacqua 17,41.595353100000004,12.975852699999999,,,,latina,infomuseodelcioccolato.com,www.museodelcioccolato.com,,,773353997,,,,non mibact,773354548
Lazio,92,,,3027.0,,,ripi,museo dellenergia,via merigo alto,41.6080872,13.419391899999999,,omr,,frosinone,museoenergia.direttoregmail.com,,ex mattatoio e lavatoio sec. xix,,,,resina,,non mibact,0775 285160
Lazio,93,,,3033.0,,,arpino,museo della liuteria embergher cerrone,corso tulliano 49,41.6475549,13.611157,,,,frosinone,museiciviciarpinolibero.it,www.arpinoturismo.it,arpino,palazzo felluca merolle,776848535,,,,non mibact,776849241
Lazio,94,,,3033.0,,,arpino,museo della fondazione umberto mastroianni,,41.649254299999996,13.6246954,,omr,,frosinone,infofondazionemastroianni,www.fondazionemastroianni.it,piazza caduti dellaria,castello ladislao,,,,,non mibact,0776 848105
Lazio,95,,,3042.0,,,atina,acadmie vitti,via sode 180,41.6571779,13.7389366,,omr,,frosinone,cesare.erariolibero.it,www.ciceroneweb.it,loc. ponte melfa,casa dove vissero maria e giacinta caira e cesare vitti,,,musart,,non mibact,0775 211417 398 8168855
Lazio,96,,,3029.0,,,veroli,museo dellabbazia di casamari,via mria 25,41.6677667,13.4365449,,omr,,frosinone,infoabbaziadicasamari.it mariaromanapicutialice.it,www.casamari.it,casamari,abbazia di casamari,0775 281020,,proust,,non mibact,0775 282371
Lazio,97,,,40.0,,,lanuvio,museo civico lanuvino,piazza della maddalena 16,41.6759901,12.69766,,omr,,roma,culturalanuvio.comnet.roma.it,,lanuvio,piano terra del palazzo comunale,693789229,,proust,sistema museale dei castelli romani e prenestini museumgrandtour,non mibact,693789237
Lazio,98,,,49.0,,sistema museale urbano di velletri,velletri,museo civico di geopaleontologia e preistoria dei colli albani,via g. mameli 4,41.6861964,12.7770369,,omr,,roma,museo.civicocomune.velletri.rm.it,www.velletrimusei.it,velletri,palazzo comunale,696158239,,proust,,non mibact,696158268
Lazio,99,,,3029.0,,,veroli,museo delle erbe dei monti ernici,piazza mazzoli 10,41.6907002,13.4178082,,,,frosinone,segreteria.verolilibero.it,www.comune.veroli.fr.it,,,775230914,,,,non mibact,775237081
Lazio,100,,,3029.0,,,veroli,museo del duomo,piazza duomo 3,41.6909908,13.4176301,,,,frosinone,giup64infinito.it,,,,775237020,,,,non mibact,775237020
Lazio,101,,,3046.0,,,san donato val di comino,museo geologico territoriale,via roma 3,41.706826899999996,13.813978,,,,frosinone,infocomune.sandonatovaldicomino.fr.it,,,,776508918,,,,non mibact,776508701
Lazio,102,,,34.0,,,colleferro,museo archeologico del territorio toleriense,via carpinetana sud 144,41.7219513,13.0115765,,omr,,roma,museocomune.colleferro.rm.it,,colleferro,,69781169,,proust,,non mibact,69781169
Lazio,103,,,41.0,,,albano laziale,museo civico archeologico di villa ferraioli,viale risorgimento 3,41.7268192,12.661449800000002,,omr,,roma,museocomune.albanolaziale.rm.it,,albano,villa ferraioli,69325759,,,sistema museale dei castelli romani e prenestini museumgrandtour,non mibact,69323490
Lazio,104,,,31.0,,,artena,museo del collegio francescano,via del convento 83,41.739098600000005,12.907743400000001,,omr,,roma,infoconvento francescano artena.it,http//beni culturali.provincia.roma.it/content/museo del collegio francescano santa maria del gesc3b9,,convento di santa maria del ges,06 9519408,,,,non mibact,06 951911
Lazio,105,,,31.0,,,artena,museo civico archeologico r.lamrechts,via fleming 20,41.742762799999994,12.9113366,,,,roma,servizio3comune.artena.rm.it,www.comune.artena.rm.it,,granaio borghese,69515119,,,,non mibact,0695199051 95191074
Lazio,106,,,119.0,,,roma,castello di giulio ii,piazza della rocca,41.7596893,12.3014406,,,,roma,,,borgo ostia antica,,,,,,mibact,
Lazio,107,,,40.0,,,rocca di papa,museo geofisico,via dellosservatorio 42,41.759879299999994,12.7100771,,omr,,roma,museoroccadipapaingv.it,,rocca di papa,osservatorio geodinamico,69496230,,resina,sistema museale dei castelli romani e prenestini museumgrandtour,non mibact,69496230
Lazio,108,,,119.0,,,roma,scavi di ostia antica e museo,viale dei romagnoli 717,41.7605709,12.3029256,,,,roma,ssba rm.osanbeniculturali.it,,ostia antica,,06 5651500,,,,mibact,06 56358099
Lazio,109,,,54.0,,,fiumicino,basilica di s. ippolito e annesso antiquarium,via redipuglia,41.76978270000001,12.268536300000001,,,,roma,,,angolo col moschin isola sacra fiumicino,,65651500,,,,mibact,656358043
Lazio,110,,,54.0,,,fiumicino,area archeologica del porto di traiano,via portuense,41.7742693,12.2517063,,,,roma,,,,,,,,,mibact,66529192
Lazio,111,,,38.0,,,valmontone,museo di palazzo doria pamphilj,piazza umberto pilozzi 9,41.776190899999996,12.9184242,,omr,,roma,culturacomune.valmontone.rm.gov.it,,,palazzo doria pamphilj,,,,sistema museale dei castelli romani e prenestini museumgrandtour,non mibact,695990229
Lazio,112,,,185.0,,,roma,museo nazionale romano terme di diocleziano,vie e. de nicola,41.7762721,12.612344300000002,,,,roma,rosanna.friggeribeniculturali.it,www.archeoroma.beniculturali.it,stazione termini,,64814190,,,,mibact,6477881
Lazio,113,,,36.0,,,palestrina,museo diocesano prenestino di arte sacra,via roma 23,41.7894554,12.8802041,,omr,,roma,museodiocesanodiocesipalestrina.it,,,,69538116,,,sistema museale dei castelli romani e prenestini museumgrandtour,non mibact,69534428
Lazio,114,,,44.0,,,frascati,museo etiopico g. massaia,via cardinale massaia 26,41.804533500000005,12.6838738,,omr,,roma,proriviin.it capfrasosmcap.org,,,convento dei cappuccini,,,,,non mibact,694010439
Lazio,115,,,44.0,,,frascati,museo tuscolano scuderie aldobrandini,piazza guglielmo marconi 6,41.8060816,12.680226,,omr,,roma,eventicomune.frascati.rm.it,www.scuderiealdobrandini.org,,,69417195,,,sistema museale dei castelli romani e prenestini museumgrandtour,non mibact,69417195
Lazio,116,,,40.0,,,monte porzio catone,inaf osservatorio astronomico di roma,via frascati 33,41.8132765,12.7067238,,,,roma,divaoa roma.inaf.it,www.webdiva2.oa roma.inaf.it,monte porzio catone,c/o osservatorio astronomico,69449446,,,,non mibact,694286427
Lazio,117,,,40.0,,sistema museale urbano di monte porzio catone,monte porzio catone,museo della citta,via simone pomardi 1,41.81555170000001,12.713924699999998,,omr,,roma,museicomune.monteporziocatone.rm.it,www.comune.monteporziocatone.rm.it,monte porzio catone,c/o chiesa,69447471,,proust,sistema museale dei castelli romani e prenestini museumgrandtour,non mibact,694341031
Lazio,118,,,33.0,,,citt di cave,museo civico citt di cave,via cavour 27,41.8175809,12.9296593,,omr,,roma,museocivicocavegmail.com,www.comune.cave.rm.it/joomla/index.phpoptioncom contentviewarticleid106itemid207langit,,ex ospedale mattei ex convento degli agostiniani,,,,sistema pre.gio,non mibact,347 5438042
Lazio,119,,,143.0,,,roma,societa di studi fiumani,via antonio cippico 10,41.8209437,12.4816416,,,,roma,infofiume rijeka.it,www.fiume rijeka.it,,,65915755,,,,non mibact,65923485
Lazio,120,,,3020.0,,,giuliano di roma,museo del vulcanismo ernico muve,via san tommaso,41.8229064,12.5083767,,omr,,roma,,,,palazzo brettagna,,,resina,,non mibact,
Lazio,121,,,30.0,,,san cesareo,ferrovia museo della stazione di colonna,via casilina 17,41.8240697,12.8108383,,omr,,roma,stazionecolonnaalice.it,www.ferroviamuseo colonna.it,san cesareo,ex stazione di colonna,694730008,,,sistema museale dei castelli romani e prenestini museumgrandtour,non mibact,69439290
Lazio,122,,,178.0,,,roma,villa dei quintili,via appia nuova 1092,41.830827899999996,12.5555566,,,,roma,ssba rm.villadeiquintilibeniculturali.it,htpp//www.archeoroma.beniculturali.it,statuario,area archeologica estesa tra via appia nuova e via appia antica,671291230,,,,mibact,67129121
Lazio,123,,,144.0,,sistema musei in comune,roma,museo della civilt romana,piazza giovanni agnelli 10,41.8314198,12.477854800000001,,omr,,roma,info.museociviltaromanacomune.roma.it,www.museociviltaromana.org,,palazzo storico,65926135,,,,non mibact,65926041
Lazio,124,,,144.0,,,roma,museo nazionale dellalto medioevo,viale lincoln 3,41.8326346,12.472430000000001,,,,roma,ssba rm.ostia.medioevobeniculturali.it,,,,06 54228130,,,,mibact,654228199
Lazio,125,,,36.0,,,palestrina,fondazione giovanni pierluigi da palestrina,vicolo pierluigi 3,41.83940870000001,12.889351,,,,roma,fond.palestrinatiscalinet.it,,,,69538083,,,,non mibact,69538083
Lazio,126,,,30.0,,,genazzano,centro internazionale darte contemporanea ciac,piazza san nicola 4,41.8458692,12.945314300000001,,omr,,roma,infociacmuseum.com,www.ciacmuseum.com,,castello colonna,,,musart,sistema museale dei castelli romani e prenestini,non mibact,
Lazio,127,,,30.0,,,castel san pietro,museo civico,piazza vittorio veneto,41.8464775,12.8943829,,omr,,roma,ilbetilotiscali.it,http//beni culturali.provincia.roma.it/content/museo civico di castel san pietro,,palazzo mocci,06 9538481,,,sistema pre.gio,non mibact,06 9538481
Lazio,128,,,36.0,,,palestrina,museo della resistenza e degli undici martiri,via vigesimo,41.8465578,12.8615344,,,,roma,infocomune.palestrina.rm.it,www.comune.palestrina.rm.it,vigesimo via pedemontana,,,,,,non mibact,069573176 0695302272 271
Lazio,129,,,179.0,,,roma,tomba di cecilia metella,via appia antica 161,41.85211279999999,12.5209185,,,,roma,,htpp//www.archeoroma.beniculturali.it,,tomba di cecilia metella nel castrum caetani,678442730,,,,mibact,67844271
Lazio,130,,,185.0,,,roma,museo delle origini,piazzale a. moro 5,41.8573198,12.5015354,,,,roma,musorirmcisadu.let.uniroma1.it,www.musei.uniroma1.it/museodelleorigini/index.html,roma,facolta di lettere,649913653,,,,non mibact,649913924
Lazio,131,,,179.0,,,roma,mausoleo delle fosse ardeatine,via ardeatina nr. 174,41.8583554,12.5089148,,,,roma,mausoleofosseardeatineonorcaduti.difesa.it,,roma,,65136742,,,,non mibact,65136742
Lazio,132,,,30.0,,,capranica prenestina,museo civico naturalistico dei monti prenestini,piazza aristide frezza 6,41.8621223,12.9521942,,omr,,roma,museocomunecapranica.it,www.comunecapranica.it,,palazzo barberini,69584337,,resina,sistema pre.gio,non mibact,69584126
Lazio,133,,,154.0,,sistema musei in comune,roma,musei capitolini centrale montemartini,via ostiense 106,41.8670298,12.478986500000001,,omr,,roma,info.centrale.montemartinicomune.roma.it,www.centralemontemartini.org,ex centrale termoelettrica giovanni montemartini,complesso industriale,65754207,,,,non mibact,65748042
Lazio,134,,,179.0,,sistema musei in comune,roma,museo delle mura di roma,via di porta san sebastiano 18,41.8734634,12.501408099999999,,,,roma,museomurazetema.it,www.museiincomune.it,,porta s. sebastiano,670475284,,,,non mibact,670475284
Lazio,135,,,154.0,,,roma,museo della via ostiense,via r. persichetti 3,41.8767871,12.480911099999998,,,,roma,,,porta san paolo,,,,,,mibact,
Lazio,136,,,153.0,,,roma,terme di caracalla,via delle terme di caracalla 52,41.8800969,12.496205900000001,,,,roma,ssba rm.termecaracallabeniculturali.it,www.archeoroma.it,,,657174530,,,,mibact,657174520
Lazio,137,,,176.0,,,roma,museo storico didattico di giochi e giocattoli del 900 la memoria giocosa,via vincenzo coranelli 26/a,41.8851401,12.5336038,,,,roma,memoriagiocosalibero.it,,quartiere pigneto,,621700782,,,,non mibact,621700782
Lazio,138,,,185.0,,,roma,foro romano e palatino,largo romolo e remo,41.885739799999996,12.4848582,,,,roma,ssba rmbeniculturali.it,www.archeoroma.beniculturali.it,roma,,66787689,,,,mibact,6699841
Lazio,139,,,184.0,,,roma,case romane del celio,clivo di scauro,41.8864735,12.490630099999999,,,,roma,infocaseromane.it,www.caseromane.it,,sottostanti la basilica dei ss. giovanni e paolo,06 77201975,,,,non mibact,06 70454544
Lazio,140,,,153.0,,,roma,mausoleo ossario garibaldino,via garibaldi 29/e,41.8881886,12.4656043,,,,roma,francesca.bertozzicomune.roma.it,,,,667103833,,,,non mibact,667103407
Lazio,141,,,185.0,,,roma,museo storico della liberazione,via tasso 145,41.8887375,12.5064312,,,,roma,infomuseoliberazione.it,,,,677203514,,,,non mibact,67003866
Lazio,142,,,185.0,,,roma,museo storico della fanteria,piazza s. croce in gerusalemme 9,41.88891339999999,12.5141899,,,,roma,urppersomil.difesa.it museo fanteriaesercito.difesa.it,,,,67027971,,,,non mibact,67027971
Lazio,143,,,185.0,,,roma,museo nazionale degli strumenti musicali,piazza santa croce in gerusalemme 9/a,41.88891339999999,12.5141899,,,,roma,,,,,67029862,,,,mibact,67014796
Lazio,144,,,183.0,,,roma,museo di villa vecchia in villa doria pamphilj,via aurelia antica 183,41.8890951,12.4450986,,omr,,roma,,www.060608.it/it/cultura e svago/beni culturali/musei/museo di villa vecchia villa doria pamphilj.html,,villa doria pamphilj,06 39380994,,,,non mibact,06 39376616
Lazio,145,,,185.0,,,roma,museo storico granatieri di sardegna,piazza santa croce in gerusalemme 7,41.889095899999994,12.5155061,,,,roma,museostoricogranatierigmail.com,,,palazzina,,,,,non mibact,67028287
Lazio,146,,,153.0,,sistema musei in comune,roma,museo di roma in trastevere,piazza santegidio 1/b,41.889860600000006,12.468701800000002,,omr,,roma,museodiroma.trasteverecomune.roma.it,,convento carmelitano di santegidio,,65884165,,demos,,non mibact,65899359
Lazio,147,,,184.0,,,roma,anfiteatro flavio colosseo,piazza del colosseo,41.8899272,12.4941978,,,,roma,ssba rm.colosseobeniculturali.it,http//archeoroma.beniculturali.it,,,677400930,,,,mibact,677400920
Lazio,148,,,184.0,,,roma,museo di idraulica,via eudossiana 20,41.8927234,12.4926794,,,,roma,marco.marchettiuniroma1.it,www.musei.uniroma1.it/informamuseonew.aspid20,roma,facolt di ingeneria universit di roma la sapienza,644585094,,,,non mibact,644585084
Lazio,149,,,165.0,,,roma,galleria nazionale darte antica in palazzo corsini,via della lungara 10,41.89324179999999,12.4669323,,,,roma,sspsae rm.galleriacorsinibeniculturali.it,www.galleriacorsinibeniculturali.it,,palazzo corsini,668133192,,,,mibact,668802323
Lazio,150,,,165.0,,,roma,villa farnesina,via della lungara 230,41.8932984,12.467066099999998,,,,roma,farnesinalincei.it lapentalincei.it,www.villafarnesina.it,,,668027397,,,,non mibact,668027268
Lazio,151,,,184.0,,,roma,museo tipologico internazionale del presepio angelo stefanucci,via tor de conti 31/a,41.8937488,12.4878893,,,,roma,informazionepresepio.it,www.presepio.it,,c/o chiesa ss.quirico e giulitta,669789602,,,,non mibact,66796146
Lazio,152,,,186.0,,,roma,museo centrale del risorgimento,via s. pietro in carcere,41.89375220000001,12.4842507,,,,roma,ist.risorgimentotiscali.it,www.risorgimento.it,,complesso del vittoriano,66782572,,,,non mibact,66793598
Lazio,153,,,186.0,x,,roma,galleria spada,piazza capo di ferro 13,41.8943769,12.4718126,,,,roma,,,,palazzo spada,66861158,,,,mibact,66861158
Lazio,154,,,187.0,,sistema musei in comune,roma,museo dei fori imperiali nei mercati di traiano,via iv novembre 94,41.8961387,12.4856164,,omr,,roma,infomercatiditraiano.it,www.mercatiditraiano.it,,palazzo storico e complesso archeologico,669780532,,,,non mibact,669941020
Lazio,155,,,186.0,,,roma,museo nazionale del palazzo di venezia,via del plebiscito 118,41.8964079,12.4810964,,,,roma,sspsae rm.mpvbeniculturali.it,www.museopalazzovenezia.beniculturali.it,rione pigna,palazzo,669994394,,,,mibact,669994284
Lazio,156,,,186.0,,sistema musei in comune,roma,museo di scultura antica giovanni barracco,corso vittorio emanuele ii 166a,41.896804100000004,12.4727295,,omr,,roma,info.museobarraccocomune.roma.it,www.museobarracco.it,farnesina ai bauellari,palazzo storico,668806848,,,,non mibact,668806848
Lazio,157,,,186.0,,,roma,galleria doria pamphilj,via del corso 305,41.8974917,12.4814574,,,,roma,arti.rmdoriapamphilj.it,www.dopart.it,rione monti,palazzo doria pamphilj,66780939,,,,non mibact,66797323
Lazio,158,,,187.0,,sistema musei in comune,roma,museo di roma,piazza s.pantaleo 10,41.8975547,12.4727273,,omr,,roma,museodiromacomune.roma.it,www.museodiroma.it,palazzo braschi,palazzo braschi,667108303,,,,non mibact,667108312
Lazio,159,,,187.0,,,roma,museo delle cere,piazza santi apostoli 68a,41.8976424,12.4832809,,omr,,roma,museodellecere.romalice.it,www.museodellecereroma.com,,,66796482,,,,non mibact,66796482
Lazio,160,,,186.0,,,roma,museo del teatro argentina,piazza argentina 52,41.8976915,12.4763656,,omr,,roma,tania.renzicomune.roma.it,,largo di torre argentina,,667103833,,,,non mibact,667106017
Lazio,161,,,187.0,,,roma,casino dellaurora,via xxiv maggio 43,41.8982771,12.488022,,,,roma,aurorapallavicinisaita.it,www.casinoaurorapallavicini.it,roma,palazzo pallavicini,683467070,,,,non mibact,683467000
Lazio,162,,,186.0,,,roma,museo dellordine dei chierici regolari ministri degli infermi camilliani,piazza della maddalena 53,41.9001131,12.476685400000001,,,,roma,agmicamilliani.org e.martineztiscali.it,www.camilliani.org,,,689928133,,,,non mibact,6899281
Lazio,163,,,186.0,,,roma,museo donazione umberto mastroianni,piazza san salvatore in lauro 15,41.9008464,12.4693138,,,,roma,redazioneilcigno.org,,,musei di san salvatore in lauro,66892109,,,,non mibact,66865493
Lazio,164,,,186.0,,,roma,palazzo altemps,piazza di santapollinare 46,41.9012314,12.472857699999999,,,,roma,ssba rm.palazzoaltempsbeniculturali.it,http//archeoroma.beniculturali.it,,,66897091,,,,mibact,6684851
Lazio,165,,,193.0,,,roma,complesso monumentale s. spirito in saxia,borgo s. spirito 3,41.901442200000005,12.4614773,,,,roma,lancisianaasl rme.it,www.regione.lazio.it/biblioteche/lancisianaroma/,,,668352470,,,,non mibact,668352449
Lazio,166,,,187.0,,,roma,istituto nazionale per la grafica,via della stamperia 6,41.90153970000001,12.4834857,,,,roma,in g.ufficiostampabeniculturali.it,www.grafica.beniculturali.it,,fontana di trevi,669921474,,,,mibact,669980238
Lazio,167,,,186.0,,sistema musei in comune,roma,museo napoleonico,piazza di ponte umberto i 1,41.9016682,12.4721688,,omr,,roma,napoleonicocomune.roma.it,www.museonapoleonico.it,,palazzo primoli,,,,,non mibact,06 68806286
Lazio,168,,,185.0,,,roma,museo nazionale romano palazzo massimo alle terme,largo di villa peretti 1,41.9017823,12.498107800000001,,,,roma,,http//archeoroma.beniculturali.it/musei/museo nazionale romano palazzo massimo,,,06 4815563,,,,mibact,06 48020
Lazio,169,,,186.0,x,,roma,museo mario praz,via zanardelli 1,41.901886100000006,12.4718246,,,,roma,museoprazmuseopraz.191.it,www.museopraz.beniculturali.it,,,06 6861089,,,,mibact,06 6861089
Lazio,170,,,185.0,,,roma,museo storico della didattica mauro laeng,via milazzo 11 b,41.9021453,12.5043954,,,,roma,mus.diduniroma3.it,www.host.uniroma3.it/laboratori/museodidattica,roma,facolta scienze della formazione universita roma 3,,,,,non mibact,657339117
Lazio,171,,,193.0,,,roma,museo nazionale di castel santangelo,lungotevere castello,41.9024896,12.4659238,,,,roma,sspsae rm.santangelobeniculturali.it,www.castelsantangelo.beniculturali.it,,,668191196,,,,mibact,66819111
Lazio,172,,,184.0,,,roma,galleria nazionale darte antica in palazzo barberini,via quattro fontane 13,41.9025415,12.4897285,,,,roma,spsae rm.gnaabeniculturali.it,http//galleriabarberini.it,,palazzo barberini,64880560,,,,mibact,64824184
Lazio,173,,,185.0,,,roma,museo erbario dipartimento di biologia ambientale,piazzale aldo moro 5,41.9033594,12.515426,,,,roma,erbariouniroma1.it,www.musei.uniroma1.it/erbario/index.html,roma,c/o universit di roma sapienza,649912409,,,,non mibact,649912410
Lazio,174,,,185.0,,,roma,museo di paleontologia,piazzale aldo moro 5,41.9033594,12.515426,,,,roma,museo.paleouniroma1.it,www.dst.uniroma1.it/musei/museo paleontologia/index.htm,citt universitaria,c/o dipartimento di scienze della terra,06 4454729,,,,non mibact,649914315
Lazio,175,,,185.0,,,roma,museo di fisica,piazzale aldo moro 5,41.9033594,12.515426,,,,roma,fabio.sebastianiroma1.infn.it,www.phys.uniroma1.it/dipweb/museo/home.htm,universit di roma la sapienza,universita degli studi la sapienza dipartimento di fisica,64957697,,,,non mibact,649914334
Lazio,176,,,185.0,,,roma,museo di zoologia delluniversita la sapienza,piazzale aldo moro 5,41.9033594,12.515426,,,,roma,augusto.vignatagliantiuniroma1.it,,universit di roma la sapienza,citta universitaria,64958259,,,,non mibact,649914742
Lazio,177,,,185.0,,,roma,museo di geologia,piazzale aldo moro 5,41.9033594,12.515426,,,,roma,museo.geologiauniroma1.it,www.tetide.geo.uniroma1.it/musei/museo geologia/index.htm,universit di roma la sapienza,c/o dipartimento di scienze della terra,64463068,,,,non mibact,649914825
Lazio,178,,,185.0,,,roma,museo di mineralogia,piazzale aldo moro5,41.9033594,12.515426,,,,roma,musmin.romauniroma1.it,www.musmin.geo.uniroma1.it,universit di roma la sapienza,dipartimento scienze della terra,64454729,,,,non mibact,649914887
Lazio,179,,,185.0,,,roma,museo dellarte classica gipsoteca,piazzale aldo moro 5,41.9033594,12.515426,,,,roma,mariagrazia.picozziuniroma1.it,,,edificio ex facolta lettere universita di roma la sapienza,649913955,,,,non mibact,649913960
Lazio,180,,,187.0,,sistema musei in comune,roma,galleria darte moderna di roma capitale,via francesco crispi 24,41.9038672,12.4858498,,omr,,roma,infogalleriaartemodernaroma.it,www.galleriaartemodernaroma.it,roma,c/o ex convento carmelitane scalze sec. xviii,06 4742912,,,,non mibact,06 4742848
Lazio,181,,,187.0,x,,roma,casa museo giorgio de chirico,piazza di spagna 31,41.9056142,12.4827002,,omr,,roma,museumfondazionedechirico.org,www.fondazionedechirico.org,palazzetto dei borgononi,palazzetto dei borgognoni,66796546,,,,non mibact,66796546
Lazio,182,,,187.0,x,,roma,keats shelley house,piazza di spagna 26,41.90575379999999,12.4825272,,omr,,roma,infokeats shelley house.org,www.keats shelley house.org,,,66784167,,,,non mibact,66784235
Lazio,183,,,192.0,,,roma,museo storico dellarma dei carabinieri,piazza risorgimento n. 46,41.906259399999996,12.4591306,,,,roma,cgmuseodircarabinieri.it,www.carabinieri.it,,,66896696,,,,non mibact,66896696
Lazio,184,,,161.0,,,roma,museo di anatomia comparata,via alfonso borelli 50,41.906419899999996,12.515730099999999,,,,roma,luciana.solauniroma1.it,,universit di roma la sapienza,c/o universita degli studi la sapienza dipartimento di biologia e biotecnologie c. darwin sede di anatomi,64457516,,,,non mibact,649918009
Lazio,185,,,161.0,,,roma,museo di anatomia patologica,viale regina elena 324,41.9072432,12.513499900000001,,,,roma,pietro.gallouniroma1.it,www.musei.uniroma1.it/anatomiapatologica/index.html,roma,dipartimento di medicina sperimentale policlinico umberto i,64461484,,,,non mibact,64461484
Lazio,186,,,20.0,,,pisoniano,museo della canapa,via santa maria 27,41.9080287,12.957783300000001,,omr,,roma,,www.pisoniano.rm.gov.it/servizi/musei/museo della canapa,,,,,,sistema pre.gio,non mibact,0774 411316
Lazio,187,,,187.0,x,,roma,museo boncompagni ludovisi per le arti decorative costume e moda,via boncompagni 18,41.9087464,12.4952171,,,,roma,s gnam.museoboncompagnibeniculturali.it,,,,06 42824074,,,,mibact,06 42824074
Lazio,188,,,186.0,x,,roma,casa di goethe,via del corso 18,41.9090106,12.4771781,,omr,,roma,infocasadigoethe.it,www.casadigoethe.it,roma,palazzo bracci,632650449,,,,non mibact,632650412
Lazio,189,,,198.0,,sistema musei in comune,roma,museo darte contemporanea roma,via reggio emilia 54,41.9127277,12.502442199999999,,omr,,roma,macrocomune.roma.it,www.museomacro.org,ex convento delle carmelitane scalze a san giuseppe a capo le case,,68554090,,,,non mibact,6671070400
Lazio,190,,,161.0,,sistema musei in comune,roma,musei di villa torlonia casina delle civette,via nomentana 70,41.9133345,12.511711,,omr,,roma,mariagrazia.massafracomune.roma.it,www.museivillatorlonia.it,roma,villa torlonia,644250166,,,,non mibact,644250072
Lazio,191,,,161.0,,sistema musei in comune,roma,museo della scuola romana,via nomentana 70,41.9133345,12.511711,,omr,,roma,mariaitalia.zacheocomune.roma.it,www.museivillatorlonia.it,roma,villa torlonia / casino nobile,06 44252109,,,,non mibact,06 44252109/45472283
Lazio,192,,,161.0,,sistema musei in comune,roma,musei di villa torlonia casino nobile,via nomentana 70,41.9133345,12.511711,,omr,,roma,annapaola.agaticomune.roma.it,,roma,villa torlonia,644250166,,,,non mibact,644250072
Lazio,193,,,197.0,x,sistema musei in comune,roma,museo pietro canonica,viale pietro canonica 2,41.9142202,12.486271,,omr,,roma,biancamaria.santesecomune.roma.it,www.museocanonica.it,,la fortezzuola di villa borghese,685301384,,,,non mibact,68842279
Lazio,194,,,196.0,,,roma,museo dei bambini explora,via flaminia 80/86,41.915469099999996,12.474891699999999,,omr,,roma,ptomasichmdbr.it,www.2mdbr.it,roma,ex deposito atac,636086803,,,,non mibact,63613776
Lazio,195,,,161.0,x,,roma,istituto di studi pirandelliani,via antonio bosio 13b,41.9162577,12.5141843,,,,roma,postastudiodiluigipirandello.it,,roma,villino del ministero dello sviluppo economico,644291853,,,,non mibact,644291853
Lazio,196,,,195.0,,,roma,museo del videogioco vigamus,via sabotino 4,41.9167809,12.4596739,,omr,,roma,,www.vigamus.com,,,,,,,non mibact,06 4547 5940
Lazio,197,,,196.0,,,roma,galleria nazionale darte moderna e contemporanea,via delle belle arti 131,41.9170143,12.482134,,,,roma,s gnambeniculturali.it,www.gnam.beniculturali.it,,,63221579,,,,mibact,63221015
Lazio,198,,,162.0,,,roma,museo storico della guardia di finanza,piazza armellini 20,41.9183968,12.522342800000002,,,,roma,museostoricogdfgdf.it,www.gdf.it,roma,caserma g. di f.,64404805,,,,non mibact,644238841
Lazio,199,,,197.0,,sistema musei in comune,roma,museo civico di zoologia,via ulisse aldrovandi 18,41.919191399999995,12.488358999999999,,omr,,roma,info.museodizoologiaroma.it,www.museodizoologia.it,,,632650186,,,,non mibact,667109270
Lazio,200,,,195.0,,,roma,istituto storico e di cultura dellarma del genio,lungotevere della vittoria 31,41.923115100000004,12.4607131,,,,roma,istituto genioesercito.difesa.it,,,,63725446,,,,non mibact,63725446
Lazio,201,,,196.0,,,roma,maxxi museo nazionale delle arti del xxi secolo,via guido reni 4/a,41.928484600000004,12.466481300000002,,,,roma,segreteriafondazionemaxxi.it,www.fondazionemaxxi.it,roma,,632101839,,,,non mibact,063225178 32101838
Lazio,202,,,25.0,,,gerano,mostra permanente la casa delle antiche scatole di latta,via del palazzo 8,41.93316970000001,12.993706,,,,roma,scatolemarinahotmail.com,www.casadellescatole.org,,,,,,,non mibact,3487960033
Lazio,203,,,25.0,,,gerano,museo dellinfiorata,via del municipio 8,41.9568201,13.021326400000001,,,,roma,infogerano.comnet.roma.it,www.infioratadigerano.it,,,774798875,,,,non mibact,774798002
Lazio,204,,,189.0,x,,roma,museo venanzo crocetti,via cassia 492,41.9592351,12.454381300000001,,omr,,roma,museo.crocettitiscali.it,www.museocrocetti.it,roma,edificio di architettura contemporanea,633711468,,,,non mibact,633711468
Lazio,205,,,19.0,,,tivoli,museo didattico del libro antico,piazza trento 1,41.962109600000005,12.7969341,,omr,,roma,associazionefanniusgmail.com,www.mdbr.it,tivoli,villa deste,641204709,,,,non mibact,641204709
Lazio,206,,,53.0,,,cerveteri,museo nazionale archeologico cerite,piazza s.maria s.n.c,41.9989303,12.098905699999998,,,,roma,rita.cosentinobeniculturali.it,htpp//etruriameridionale.beniculturali.it,,,69940001,,,,mibact,69941354
Lazio,207,,,188.0,,,roma,villa di livia,via della villa di livia 1,42.000788799999995,12.4934285,,,,roma,,www.archeoroma.it,via flaminia km 1400,,,,,,mibact,633626826
Lazio,208,,,123.0,,,roma,area archeologica di veio santuario etrusco dellapollo,via riserva campetti,42.021080700000006,12.3888035,,,,roma,,,localit isola farnese portonaccio,,,,,,mibact,630890116
Lazio,209,,,23.0,,,arsoli,museo delle tradizioni musicali,corso borgo san bartolomeo 63,42.0409547,13.019278199999999,,omr,,roma,ecomuseoarsoligmail.com comune.arsoliltiscalinet.it,www.prolocodiarsoli.it/museo20tradizioni20musicali.htm,,complesso ex granaio massimo pian terreno.,774920313,,demos,sistema medaniene,non mibact,774920006
Lazio,210,,,58.0,,,santa marinella,antiquarium di pyrgi e area archeologica,,42.0584662,11.900578999999999,,,,roma,sba embeniculturali.it,,,castello di santa severa,766570194,,,,mibact,766570194
Lazio,211,,,60.0,,,formello,casolare 311 casa colonica e museo della civilta comtadina,via santi martiri 12,42.061485100000006,12.445273,,omr,,roma,museo.casolare311gmail.com,www.casolare311.it,perazzeta formello,casa colonica n. 311,690154548,,proust,,non mibact,69084255
Lazio,212,,,53.0,,,civitavecchia,museo archeologico nazionale,largo cavour 1,42.0911188,11.7927465,,,,roma,sba embeniculturali.it,www.151.12.58.164/etruria/index.phpit/138/museo archeologico nazionale di civitavecchia,centro storico,c/o ingresso area portuale,76623604,,,,mibact,76623604
Lazio,213,,,26.0,,,licenza,museo civico oraziano,piazza del palazzo 3,42.094637899999995,12.908997,,,,roma,licenza.licenzatin.it,,,,77446582,,,,non mibact,77446225
Lazio,214,,,53.0,,,civitavecchia,terme taurine o di traiano,via delle terme taurine,42.1099953,11.8360816,,,,roma,prolococivitavecchiainwind.it,www.prolococivitavecchia.it,localit terme taurine uscita civitavecchia nord,,76623604,,,,mibact,076623604 076620209
Lazio,215,,,63.0,,,campagnano di roma,museo civico archeologico di campagnano,corso vittorio emanuele ii 2,42.138897799999995,12.381161500000001,,,,roma,d.moretticomunecampagnano.it,,,palazzo venturi,690159308,,,,non mibact,69042924
Lazio,216,,,69.0,,,trevignano romano,museo civico etrusco romano,piazza vittorio emanuele iii 1,42.1561477,12.2463261,,omr,,roma,museocivicotrevignanoromano.it,www.trevignanoromano.it,,palazzo comunale,69999848,,,,non mibact,6999120201
Lazio,217,,,51.0,,,allumiere,museo civico adolfo klitsche de la grange,piazza della repubblica 29,42.1565334,11.9010675,,omr,,roma,museoallumieretiscali.it,www.digilander.libero.it/museoallumiere,allumiere,palazzo della reverenda camera apostolica,766967793,,resina,,non mibact,766967793
Lazio,218,,,1010.0,,,oriolo romano,palazzo altieri,piazza umberto i 1,42.15902379999999,12.138075099999998,,,,viterbo,,,,,699837145,,,,mibact,699837145
Lazio,219,,,2032.0,,,fara in sabina,museo del silenzio,santa maria in castello snc,42.2095728,12.7295977,,omr,,rieti,infomuseodelsilenzio.it,www.museodelsilenzio.it,fara sabina,,765277021,,musart,,non mibact,765277021
Lazio,220,,,1030.0,,,bassano romano,villa giustiniani odescalchi,piazza umberto i,42.2182424,12.1925906,,,,viterbo,,,centro storico,,0761 636065,,,,mibact,0761 636065
Lazio,221,,,60.0,,,nazzano,polo scientifico museale museo del fiume di nazzano,via mazzini 4,42.2286013,12.597138300000001,,omr,,roma,museodelfiumelibero.it,www.museodelfiume.it,nazzano,centro storico,0765 332710,,resina,,non mibact,0765 332002
Lazio,222,,,2033.0,,,monteleone sabino,museo civico archeologico trebula mutuesca,via lucio mummio 11,42.2343211,12.855987599999999,,omr,,rieti,museomonteleonesabinogmail.com,,monteleone sabino,municipio,765884340,,proust,,non mibact,765884014
Lazio,223,,,2034.0,,,montopoli di sabina,modern automata museum,via case nuove 7,42.235031899999996,12.682615,,omr,,rieti,infomodernautomatamuseum.com,www.modernautomatamuseum.com,granari,,765279559,,musart,,non mibact,765279821
Lazio,224,,,1015.0,,,sutri,museo del patrimonium,via di portavecchia 79,42.2410805,12.2245358,,omr,,viterbo,bibliocomune.sutri.vt.it,www.comune.sutri.vt.it/,sutri,ex palazzo della comunita,761601232,,,,non mibact,761600867
Lazio,225,,,1015.0,,,tarquinia,museo diocesano di civitavecchia tarquinia,via roma 11,42.2526729,11.7565463,,,,viterbo,insolera.giovannilibero.it,,,,,,,,non mibact,766840843
Lazio,226,,,1016.0,,,tarquinia,museo archeologico nazionale,piazza cavour 2,42.2533951,11.7551343,,,,viterbo,,htpp//etruriameridionale.beniculturali.it/index.phpit/132/museo archeologico nazionale tarquiniense,centro storico,,,,,,mibact,0761 856036
Lazio,227,,,1016.0,,,tarquinia,collezione giuseppe cultrera museo della ceramica della societa tarquiniense darte e storia,via delle torri 31,42.254213299999996,11.7572653,,,,viterbo,tarquiniensegmail.com,,,,766858194,,,,non mibact,766858194
Lazio,228,,,1033.0,,,civita castellana,museo archeologico dellagro falisco e forte sangallo,via del forte snc,42.2880258,12.4085077,,,,viterbo,,,,,0761 513735,,,,mibact,0761 513735
Lazio,229,,,2047.0,,,magliano sabina,museo civico archeologico,via sabina 19,42.36117479999999,12.4826261,,,,rieti,museo civico mslibero.it,www.soi.cnr.it/magliano/,magliano sabina,palazzo gori,744910001,,,,non mibact,744910001
Lazio,230,,,1100.0,,,viterbo,biblioteca s. giuseppe,viale a. diaz 25,42.41107879999999,12.1090121,,obr,,viterbo,biblioteca.sangiuseppeteologicoviterbese.it,,,istituto teologico s. pietro,761321026,,,,non mibact,761343134
Lazio,231,,,1100.0,,sistema museale urbano di viterbo,viterbo,museo della ceramica della tuscia,via cavour 67,42.4157087,12.106446,,omr,,viterbo,laboratorioceramicalibero.it,www.museodellaceramicadellatuscia.com,,,761223674,,musart,,non mibact,761346136
Lazio,232,,,1100.0,,sistema museale urbano di viterbo,viterbo,museo civico,piazza francesco crispi 2,42.417672700000004,12.1105913,,,,viterbo,museocivicocomune.viterbo.it,www.comuneviterbo.it link museocivico,viterbo,ex convento e chiostro della chiesa di s.maria della verit,761348276,,,,non mibact,761348276
Lazio,233,,,1017.0,,,tuscania,chiesa san pietro,,42.4185731,11.870308900000001,,,,viterbo,,,localit tuscania,,,,,,mibact,
Lazio,234,,,1017.0,,,tuscania,necropoli madonna dellolivo,,42.4185731,11.870308900000001,,,,viterbo,sba embeniculturali.it,htpp//etruriameridionale.beniculturali.it,localit madonna dellolivo,c/o chiesa di madonna dellolivo,,,,,mibact,
Lazio,235,,,1100.0,,sistema museale urbano di viterbo,viterbo,museo nazionale etrusco di rocca albornoz,piazza della rocca 21/b,42.421643100000004,12.1044907,,,,viterbo,sba em.roccaalbornozbeniculturali.it,www.etruriameridionale.beniculturali.it,,,0761 325929,,,,mibact,0761 325929
Lazio,236,,,1011.0,,,canino,tomba francois,parco archeologico di vulci,42.424116299999994,11.6310953,,,,viterbo,sba embeniculturali.it,http//etruriameridionale.beniculturali.it,localit vulci,castello dellabbadia,0761 437787,,,,mibact,0761 437787
Lazio,237,,,1100.0,,,viterbo,museo erbario della tuscia utv,via s. camillo de lellis snc,42.426571100000004,12.0896074,,,,viterbo,erbariounitus.it,www.unitus.it www.sma.unitus.it,,universita degli studi della tuscia ex facolt di agraria vecchio edificio,761357028,,,,non mibact,761357490
Lazio,238,,,1031.0,x,,viterbo,villa lante della rovere,via jacopo barozzi 71,42.426754100000004,12.154816499999999,,,,viterbo,,,localit bagnaia,,,,,,mibact,
Lazio,239,,,1028.0,,,orte,museo civico,via pie di marmo,42.460527899999995,12.3870936,,omr,,viterbo,infocomune.orte.vt.it,www.comune.orte.vt.it/c056042/zf/index.php/servizi aggiuntivi/index/index/idtesto/27,,ex chiesa di santantonio abate,0761 493303,,,,non mibact,0761 4041
Lazio,240,,,1010.0,,,cellere,museo del brigantaggio,via marconi 20,42.5111064,11.7732155,,omr,,viterbo,infomuseobrigantaggiocellere.it,www.museobrigantaggiocellere.it,,ex mattatoio,,,demos,sistema museale del lago di bolsena,non mibact,0761 451791 392 7013553
Lazio,241,,,1010.0,,,ischia di castro,museo civico archeologico pietro e turiddo lotti,piazza cavalieri vittorio veneto,42.5443643,11.7559713,,omr,,viterbo,ischia museocivicolibero.it,,,,0761 425400,,,sistema museale del lago di bolsena simulabo,non mibact,0761 425455
Lazio,242,,,1010.0,,,capodimonte,museo della navigazione nelle acque interne,viale regina margheritasnc,42.5560915,11.8882363,,,,viterbo,comunecapodimonteitpec.it,www.comune.capodimonte.vt.it,capodimonte,,761871206,,,,non mibact,761870043
Lazio,243,,,2016.0,,,leonessa,museo civico demo antropologico di leonessa,via di san francesco 85,42.5631277,12.964419900000001,,omr,,rieti,comunedileonessacomunedileonessa.it,www.museum eu.it,leonessa,c/o ex convento chiostro di san francesco,746923219,,,,non mibact,746923212
Lazio,244,,,1018.0,,,valentano,museo della preistoria della tuscia e della rocca farnese,piazza della vittoria 11,42.5685644,11.819206900000001,,omr,,viterbo,museo.valentanoalice.it,www.simulabo.it,,rocca farnese,761420018,,proust,sistema museale del lago di bolsena,non mibact,761420018
Lazio,245,,,2012.0,,,amatrice,museo civico di arte sacra cola filotesio di amatrice,via cola 47,42.629869899999996,13.287811900000001,,omr,,rieti,museocivicocomune.amatrice.it,,amatrice,,746825682,,musart,,non mibact,074683081 int 27
Lazio,246,,,1023.0,,,bolsena,museo territoriale del lago di bolsena,piazza monaldeschi,42.6463309,11.9858125,,omr,,viterbo,museocomunebolsena.it,www.regione.lazio.it/musei/museo bolsena/,,castello,,,,sistema museale del lago di bolsena,non mibact,761798630
Lazio,247,,,1023.0,,,bolsena,area del foro e domus privatae della citt romana di volsinii,via orvietana,42.6474699,11.998059699999999,,,,viterbo,,,localit poggio moscini,,,,,,mibact,
Lazio,248,,,1025.0,,,grotte di castro,museo archeologico e delle tradizioni popolari,piazza giacomo matteotti,42.6852104,11.902225900000001,,omr,,viterbo,bibliotecagrottelibero.it,www.simulabo.it,,palazzo di jacopo barozzi da vignola sec. xvi,,,,sistema museale del lago di bolsena,non mibact,0763 796983
Lazio,249,,,1021.0,,,acquapendente,museo della citta,via roma 85,42.7426527,11.868904800000001,,omr,,viterbo,museo.civ.dioccomuneacquapendente.it,www.museoacquapendente.it,,palazzo vescovile,0763 711215,,musart,sistema museale del lago di bolsena,non mibact,0763 7309205
Lazio,250,,,1023.0,,,acquapendente,museo della citta,piazzetta dellorologio,42.7436932,11.868015699999999,,omr,,viterbo,infosimulabo.it,,,palazzo monaldeschi,,,,sistema museale del lago di bolsena,non mibact,0761 796914
Lazio,251,,,1021.0,,,acquapendente,museo del fiore,predio giardino 37,42.7477229,11.8630202,,omr,,viterbo,infomuseodelfiore.it,www.museodelfiore.it,frazione torre alfina,,763731175,,resina,sistema museale del lago di bolsena,non mibact,763733642
Lazio,252,,,4020.0,,,itri,museo demoetnoantropologico del brigantaggio nel lazio meridionale,corso appio claudio 268,41.2901261,13.524151199999999,,omr,,latina,infomuseobrigantaggio.it,www.museobrigantaggio.it,,,771721061,,demos,,non mibact,771721061
Lazio,253,,,40.0,,,pomezia,museo civico archeologico lavinium,via pratica di mare,41.6068257,12.503282400000002,,omr,,roma,museo.laviniumyahoo.it,www.museopomezia.it,borgo di pratica,edificio moderno,691984744,,proust,,non mibact,691984744
Lazio,254,,,3100.0,,,frosinone,museo archeologico comunale,via xx settembre 32,41.639362299999995,13.3523809,,omr,,frosinone,museocomune.frosinone.it,www.comune.frosinone.it,centro storico,c/o cattedrale di s. maria,775859292,,,,non mibact,775212314
Lazio,255,,,40.0,,sistema museale urbano di monte porzio catone,monte porzio catone,museo diffuso del vino,via vittorio emanuele ii 22 32 46,41.816715,12.71471,,omr,,roma,museicomune.monteporziocatone.rm.it,www.comune.monteporziocatone.rm.it,monte porzio catone,,69447471,,demos,sistema museale dei castelli romani e prenestini museumgrandtour,non mibact,689686503
Lazio,256,,,178.0,,,roma,parco archeologico delle tombe della via latina,via arco di travertino 151,41.86343,12.532869999999999,,,,roma,,www.archeoroma.beniculturali.it/siti archeologici/suburbio/tombe via latina,,,67809255,,,,mibact,67809255
Lazio,257,,,185.0,,,roma,museo nazionale darte orientale giuseppe tucci,via merulana 248,41.89445,12.500539999999999,,,,roma,mn aobeniculturali.it,www.museorientale.beniculturali.it,,palazzo brancaccio,646974837,,,,mibact,64697481
Lazio,258,,,155.0,,,roma,archivio storico e museo birra peroni,via r. birolli 8,41.902813,12.5991294,,,,roma,museoperoni.it,www.birraperoni.it,roma,museo peroni,62283442,,,,non mibact,622544296
Lazio,259,,,185.0,,,roma,museo di storia della medicina,viale delluniversita 34/a,41.904791499999995,12.5136953,,,,roma,alessandro.arutauniroma1.it,www.histmed.it/museo/museo.htm,universit di roma la sapienza,dipartimento di medicina molecolare,64451721,,,,non mibact,649914445
Lazio,260,,,197.0,,sistema musei in comune,roma,museo carlo bilotti aranciera di villa borghese,viale fiorello la guardia,41.913337799999994,12.4827497,,omr,,roma,museo.bilotticomune.roma.it,www.museocarlobilotti.it,,aranciera di villa borghese,68845630,,,,non mibact,685357446
Lazio,261,,,197.0,,,roma,galleria borghese,piazzale scipione borghese 5,41.914359999999995,12.49235,,,,roma,sspsae rm.borghesebeniculturali.it,http//galleriaborghese.beniculturali.it,,palazzo,68840756,,,,mibact,68413979
Lazio,262,,,196.0,,,roma,museo nazionale etrusco di villa giulia,piazzale di villa giulia,41.9182999,12.474606699999999,,,,roma,sba embeniculturali.it,www.villagiulia.beniculturali.it,,,63202010,,,,mibact,63226571
Lazio,263,,,27.0,,,roviano,museo della civilta contadina valle dellaniene,piazza s. giovanni 1,42.050936,12.964165,,omr,,roma,rovianomuseotiscali.it,,,castello brancaccio,774903008,,demos,sistema medaniene,non mibact,774903143
Lazio,264,,,61.0,,,anguillara sabazia,museo storico della civilta contadina e della cultura popolare augusto montori,torre orsini snc,42.0914786,12.271545800000002,,,,roma,associazionesabatetiscali.it,www.parcodeilaghi.it/museo/visitamuseo.htm,anguillara sabazia,giardini del torrione,69994096,,,,non mibact,699608241
Lazio,265,,,62.0,,,bracciano,museo civico di bracciano,via umberto primo 5,42.1036275,12.1768752,,omr,,roma,museocomune.bracciano.rm.it,www.regione.lazio.it/musei/bracciano/index.php,,,699805106,,musart,,non mibact,699805106
Lazio,266,,,60.0,,,capena,art forum wurth,viale buona fortuna2,42.12335,12.59595,,omr,,roma,art.forumwuerth.it,www.artforumwuerth.it,loc. scorano,,06 901 034 00,,musart,,non mibact,06 901 038 00
Lazio,267,,,1030.0,,,calcata,museo della civilta contadina,via san giovanni,42.2165023,12.418712199999998,,,,viterbo,gisa.federicilibero.it,,,c/o chiesa di s.giovanni,,,,,non mibact,761587989
Lazio,268,,,1036.0,,,nepi,museo civico archeologico di nepi,via xiii settembre 1,42.242992,12.347864999999999,,omr,,viterbo,museocomune.nepi.vt.it,,,palazzo comunale,761557960,,proust,,non mibact,761570604
Lazio,269,,,2013.0,,,antrodoco,museo della citta lin delija e carlo cesi,corso roma 9,42.417332,13.07929,,omr,,rieti,culturaesportcomunediantrodoco.it,www.museoantrodoco.it,antrodoco,,746578623,,musart,,non mibact,746578379
Lazio,270,,,1030.0,,,vasanello,museo della ceramica di vasanello,via s. salvatore 19,42.4183899,12.3469114,,omr,,viterbo,tamarapatillilibero.it,,vasanello,palazzo comunale,3392077494,,,,non mibact,7614089302
Lazio,271,,,1020.0,,,bomarzo,parco dei mostri sacro bosco di bomarzo,,42.4916599,12.2475933,,,,viterbo,boscosacrointerfree.it,,gioardino,,761924029,,,,non mibact,761924029
Lazio,272,,,1022.0,,,bagnoregio,museo geologico delle frane,piazza san donato,42.6278153,12.1136284,,omr,,viterbo,infomuseogeologicodellefrane.it,,civita di bagnoregio,palazzo alemanni,,,resina,sistema museale del lago di bolsena,non mibact,328 6657205
Lazio,273,,,10120.0,,,lubriano,museo naturalistico,piazza col di lana 12,42.636462,12.1108139,,omr,,viterbo,infomuseolubriano.com,,ex casa di padella,,,,resina,,non mibact,0761 780391 327 0289027
Lazio,274,,,1010.0,,,gradoli,museo del costume farnesiano,piazza luigi palombini 2,42.644090000000006,11.85619,,omr,,viterbo,comunedigradolilegalmail.it,www.comune.gradoli.vt.it,,palazzo farnese,761456052,,musart,sistema museale del lago di bolsena,non mibact,761456082
Lazio,275,,,3037.0,,,pontecorvo,tesoro di s. bartolomeo,basilica cattedrale san bartolomeo ap.,41.4545679,13.6637674,,,,frosinone,cattedralepontecorvolibero.it,www.cattedralepontecorvo.it,pontecorvo,c/o cattedrale,,,,,non mibact,3313469988
Lazio,276,,,42.0,,,anzio,museo dello sbarco di anzio,via di villa adele snc,41.4495955,12.6197253,,,,roma,infosbarcodianzio.it,www.sbarcodianzio.it,anzio,villa adele,69848059,,,,non mibact,69848059
Lazio,277,,,3031.0,,,aquino,museo della citta,via latina antica snc,41.4993641,13.7039714,,omr,,frosinone,museoaquinolibero.it museoaquinovirgilio.it,,,,0776728603 / 0776729,,proust,,non mibact,776729061
Lazio,278,,,20.0,,,arcinazzo romano,museo comunale villa di traiano,via sublacense km 30 snc,41.878652,13.1163715,,omr,,roma,infoarcinazzo.org,www.arcinazzo.org,altipiani di arcinazzo,,774808263,,proust,sistema medaniene sistema pre.gio,non mibact,774808006
Lazio,279,,,20.0,,,arcinazzo romano,museo della cultura contadina,via del forno snc,41.878652,13.1163715,,,,roma,infoarcinazzo.org,,,,774808263,,,,non mibact,774808006
Lazio,280,,,40.0,,,ardea,museo giacomo manz,via laurentina km 32800,41.6079691,12.5432586,,,,roma,marcella.cossubeniculturali.it,www.museomanzu.beniculturali.it,,,69135022,,,,mibact,69135022
Lazio,281,,,3033.0,,,arpino,museo dellarte della lana,via dellaquila romana snc,41.6451345,13.612625099999999,,,,frosinone,museiciviciarpinolibero.it,www.arpinoturismo.it,arpino,ex chiesa di s. domenico,776850057,,,,non mibact,776649241
Lazio,282,,,3042.0,,,atina,museo archeologico di atina e della valle di comino,via vittorio emanuele iii snc,41.619337200000004,13.8015603,,omr,,frosinone,museo.atinavirgilio.it,www.comune.atina.fr.it,atina,ex edificio scolastico g. visocchi atina,776609131,,proust,,non mibact,776609131
Lazio,283,,,3040.0,,,ausonia,museo della pietra,via san michele snc,41.3570246,13.750743599999998,,omr,,frosinone,comunediausonialibero.it,,centro storico,c/o castello medievale,0776 953014,,demos,,non mibact,0776 952021
Lazio,284,,,1010.0,,,blera,museo civico gustavo vi adolfo di svezia sezione demo antropologica,via umberto i snc,42.2759082,12.025463900000002,,omr,,viterbo,info museoblerayahoo.it,,blera,,761470566,,demos,,non mibact,761471057
Lazio,285,,,62.0,,,bracciano,museo dellopera del duomo di s. stefano bruno panunzi,largo della cattedrale,42.103913299999995,12.1786837,,,,roma,p.s.stefanobraccianogmail.com,www.forumclodii.org,,,,,,,non mibact,3392326963
Lazio,286,,,1030.0,,,calcata,opera bosco museo di arte nella natura,localita colle snc,42.21656,12.421149699999999,,omr,,viterbo,operaboscooperabosco.eu,www.operabosco.eu,,,,,musart,,non mibact,761588048
Lazio,287,,,1030.0,,,canepina,museo delle tradizioni popolari di canepina,largo maria de mattias 7,42.3818609,12.230836300000002,,omr,,viterbo,infocmcimini.it,,,ex convento dei carmelitani,761652359,,demos,,non mibact,761327677
Lazio,288,,,60.0,,,capena,area archeologica di lucus feroniae e museo archeologico,strada statale 3 bis tiberina km 18 500,42.1409078,12.5394045,,,,roma,,,,edificio costruito ex novo,,,,,mibact,69085173
Lazio,289,,,1012.0,,,capranica,museo delle confraternite,via annibal caro,42.259544500000004,12.174631100000001,,omr,,viterbo,capranicasegreteriahotmail.com,,,,0761 6679232,,,,non mibact,0761 6679209
Lazio,290,,,32.0,,,carpineto romano,museo la reggia dei volsci,via della torre antica 4,41.608664399999995,13.0821906,,omr,,roma,museolareggiaalternatyva.it,,carpineto romano,,697180029,,,sistema dei monti lepini,non mibact,69717434
Lazio,291,,,32.0,,,carpineto romano,mostra permanente i cimeli di leone xiii,via la rosa snc,41.608664399999995,13.0821906,,,,roma,culturacacarpinetocarpinetoromano.it,,,c/o centro culturale san nicola,697180029,,,,non mibact,697180028
Lazio,292,,,3043.0,,,cassino,museo archeologico nazionale g. carettoni,via di montecassino km 100,41.4907889,13.833377599999999,,,,frosinone,sba laz.museocassinobeniculturali.it,www.archeolz.arti.beniculturali.it,,,0776 301168,,,,mibact,0776 301168
Lazio,293,,,3024.0,,,ceprano,piccolo museo,via mons. pietro corvi 1,41.54435529999999,13.512173,,,,frosinone,cepranocarmelitaniroma.it,,padri carmelitani scalzi ceprano,convento,775914148,,,,non mibact,775914148
Lazio,294,,,4010.0,,,cori,museo della citta e del territorio,via giacomo matteotti,41.6435151,12.9136293,,omr,,latina,museocomune.cori.lt.it,,cori,,696617243,,proust,sistema dei monti lepini,non mibact,696617243
Lazio,295,,,2032.0,,,fara in sabina,abbazia di farfa,via del monastero 1,42.2212858,12.7184454,,,,rieti,farfenpriorlibero.it,www.abbaziadifarfa.it,,,,,,,non mibact,765277065
Lazio,296,,,65.0,,,fiano romano,villa dei volusii,via tiberina km 17300,42.170257299999996,12.5922521,,,,roma,,,bambocci,,,,,,mibact,
Lazio,297,,,60.0,,,formello,museo civico dellagro veientano,piazza san lorenzo snc,42.0820027,12.4036987,,omr,,roma,museocomune.formello.rm.it,www.comune.formello.rm.it,formello,palazzo chigi,69089577,,proust,,non mibact,690194240
Lazio,298,,,4024.0,,,gaeta,museo diocesano e della religiosita del parco dei monti aurunci,piazza cardinale tommaso de vio 9,41.2107299,13.5714285,,omr,,latina,beniculturaliarcidiocesigaeta.it,,,palazzo cardinale tommaso de vio,7714530234,,,,non mibact,771700287
Lazio,299,,,1035.0,,,gallese,museo di gallese centro culturale marco scacchi,via lorenzo filippini snc gallese,42.371691299999995,12.402600999999999,,omr,,viterbo,museocomune.gallese.vt.it,,,,761495535,,,,non mibact,761495503
Lazio,300,,,30.0,,,genazzano,museo del santuario madre del buon consiglio,corso cardinale vannutelli 2,41.8361406,12.973345199999999,,omr,,roma,santuariombcgmail.com,www.genazzanobuonconsiglio.it/index.phpoptioncom contentviewarticleid77itemid69,,convento del santuario della madonna del buon consiglio,06 95570163,,,,non mibact,06 9579002
Lazio,301,,,46.0,,,grottaferrata,abbazia greca di san nilo,via di san nilo snc,41.7865663,12.673591400000001,,,,roma,segreteriaabbaziagraca.it,www.abbaziagreca.it,grottaferrata,chiesa di santa maria,06 9456734,,,,mibact,06 9459309
Lazio,302,,,12.0,,,guidonia montecelio,antiquarium don celestino piccolini,via monte albano snc,41.9939694,12.7245045,,,,roma,pubblicaistruzioneguidonia.org,www.guidonia.org,montecelio,,0774 303434,,,,non mibact,0774 511053 301290
Lazio,303,,,1010.0,,,latera,museo della terra,via dellosteria snc,42.6300003,11.828067800000001,,omr,,viterbo,museocomune.latera.vt.it,www.simulabo.it /www.regione.lazio.it/musei/latera/,latera,grancia di san pietro,761459476,,demos,sistema museale del lago di bolsena simulabo,non mibact,761459041
Lazio,304,,,4100.0,,,latina,museo di piana delle orme,via migliara 435 n.29,41.440428600000004,12.967055,,omr,,latina,infopianadelleorme.it,,borgo faiti,,773255000,,,,non mibact,773258708
Lazio,305,,,2016.0,,,leonessa,museo della nostra terra,via comunale di ocre leonessa 79,42.5660721,12.962444999999999,,,,rieti,franco.bonellialice.it,,frazione ocre comune di leonessa,,,,,,non mibact,335465412
Lazio,306,,,26.0,,,licenza,villa di orazio,via licinese snc,42.072782700000005,12.9004489,,,,roma,sba lazbeniculturali.it,www.archeolz.arti.beniculturali.it,,,06 3214447,,,,mibact,06 3265961
Lazio,307,,,4010.0,,,maenza,museo del paesaggio,piazza della portella,41.5231443,13.1821084,,omr,,latina,comunemaenzalibero.it,,rione belle donne,castello caetani aldobrandini,,,musart,sistema dei monti lepini,non mibact,0773 951310
Lazio,308,,,47.0,,,marino,museo archeologico umberto mastroianni,largo jacopa de settesoli snc,41.770086600000006,12.6585371,,omr,,roma,museocivicomarinointerfree.it,,marino,ex chiesa di s. lucia,69385681,,,,non mibact,69385681
Lazio,309,,,4026.0,,,minturno,comprensorio archeologico di minturnae,via punta fiume snc,41.2657426,13.7443642,,,,latina,sba laz.minturnaebeniculturali.it,www.archeolz.arti.beniculturali.it,marina di minturno,,0771 680093,,,,mibact,0771 622239
Lazio,310,,,4010.0,,,norma,museo civico archeologico padre annibale gabriele saggi,via della liberazione snc,41.5845715,12.975238000000001,,omr,,latina,culturacomunedinorma.it,www.regione.lazio.it/musei/civicoarcheologiconorma/,norma,palazzo ex comunale,773354186,,proust,,non mibact,773353806
Lazio,311,,,35.0,,,olevano romano,museo sulla pittura di paesaggio,via h. hindorf 1,41.860647799999995,13.031221,,omr,,roma,degiustigmail.com,www.amolevano.it,,villa de pisa,,,,sistema pre.gio,non mibact,06 95600118
Lazio,312,,,1028.0,,,orte,museo delle confraternite,piazza del popolo snc,42.457441100000004,12.3869837,,,,viterbo,robertorondelliconfraterniteorte.it,www.confraterniteorte.it,orte,c/o chiesa di santagostino,761402640,,,,non mibact,3206280189
Lazio,313,,,1028.0,,,orte,museo diocesano,piazza colonna 5,42.460018,12.386315,,omr,,viterbo,museodartesacraortegmail.com,www.diocesicivitacastellana.it,,ex chiesa di san silvestro,,,musart,,non mibact,0761 404357
Lazio,314,,,36.0,,,palestrina,museo archeologico nazionale di palestrina e santuario della fortuna primigenia,piazza della cortina 1,41.8405653,12.8925954,,,,roma,sba laz.palestrinabeniculturali.it,www.archeolz.arti.beniculturali.it,,c/o palazzo barberini,06 9538100,,,sistema museale dei castelli romani e prenestini museumgrandtour,mibact,06 9538100
Lazio,315,,,2025.0,,,petrella salto,museo delle suore di santa filippa mareri ex monastero,piazza santa filippa mareri 17,42.272890999999994,13.064391,,omr,,rieti,filippaborgolibero.it,www.suoresantafilippa.it,borgo san pietro,,746558367,,,,non mibact,746558134
Lazio,316,,,4014.0,,,pontinia,museo agro pontino,piazza john kennedy 1,41.404398799999996,13.0437426,,omr,,latina,infomuseoagropontino.it,www.museoagropontino.it,,,,,demos,,non mibact,0773 867422
Lazio,317,,,3030.0,,,posta fibreno,museo naturalistico etnografico della riserva naturale lago di posta fibreno,piazza cesare battisti snc,41.694545899999994,13.696616500000001,,,,frosinone,labterlibero.it,,,,776888021,,,,non mibact,776888021
Lazio,318,,,4015.0,,sistema museale urbano di priverno,priverno,museo per la matematica giochiamo allinfinito,via san martino snc,41.469922,13.183253400000002,,omr,,latina,giochiamoallinfinitolibero.it,www.sistemamuseo.it/museoid.phpuid180,sp san martino 10,castello di san martino,773904973,,,sistema dei monti lepini,non mibact,773904601
Lazio,319,,,4015.0,,sistema museale urbano di priverno,priverno,polo medievale del museo archeologico di priverno,via dei guitti snc,41.469922,13.183253400000002,,omr,,latina,musarchprivernolibero.it,,fossanova,antica forestiera cistercense,773938006,,proust,sistema dei monti lepini,non mibact,773938006
Lazio,320,,,4010.0,,,priverno,abbazia di fossanova,via s.tommaso daquino,41.4381536,13.195752800000003,,,,latina,abbazialibero.it,www.abbaziadifossanova.it,fossanova,,0773 939382,,,,mibact,0773 939061
Lazio,321,,,4010.0,,sistema museale urbano di priverno,priverno,area archeologica privernum,sr monti lepini km 28800,41.473427,13.179527300000002,,omr,,latina,musarchprivernolibero.it,http//musarchpriverno.it,loc. mezzagosto,antica privernum,0773 905065,,,sistema dei monti lepini,non mibact,0773 905065
Lazio,322,,,2100.0,,,rieti,museo civico di rieti,piazza vittorio emanuele ii 1,42.4055045,12.8658321,,omr,,rieti,museocivicocomune.rieti.it museocivicorietigmail.com,www.regione.lazio.it/musei/rieti/,rieti,municipio,746253173,,musart proust,,non mibact,0746287212 287280
Lazio,323,,,20.0,x,,riofreddo,museo delle culture villa garibaldi,via costanza garibaldi 10,42.0595895,12.9978217,,omr,,roma,mudeculibero.it,,,,774929501,,demos proust,sistema medaniene,non mibact,774929186
Lazio,324,,,156.0,,,roma,museo del deposito pleistocenico di casal de pazzi,via ciciliano snc,41.932575,12.5699643,,,,roma,patrizia.gioiacomune.roma.it,www.sovraintendenzaroma.it/i luoghi/musei 1/altri musei e collezioni 1/museo di casal de pazzi deposito pleistocenico,rebibbia,angolo con via egidio galbani,62417187,,,,non mibact,624404006
Lazio,325,,,186.0,,sistema musei in comune,roma,museo dellara pacis,lungotevere in augusta snc,41.896600799999995,12.4753205,,omr,,roma,info.arapaciscomune.roma.it,www.arapacis.it,roma,edificio di architettura contemporanea,632652497,,,,non mibact,632652497
Lazio,326,,,184.0,,,roma,museo della cartolina,via del cardello 14a presso enrico sturani,41.889187,12.4982572,,,,roma,sturamailyahoo.it,,roma,,,,,,non mibact,6.486.970
Lazio,327,,,185.0,,,roma,museo di chimica,piazzale a. moro 5 universita degli studi la sapienza dipartimento di chimica,41.8977003,12.509727400000001,,,,roma,museodichimicauniroma1.it,,roma,,649913725,,,,non mibact,649913167
Lazio,328,,,138.0,,,roma,casa protostorica di fidene,via quarrata snc,41.991990799999996,12.518330699999998,,,,roma,carlo.persianicomune.roma.it,,,,62017187,,,,non mibact,624404006
Lazio,329,,,135.0,,,roma,museo laboratorio della mente,piazza s. maria della piet 5,41.9407108,12.4191006,,omr,,roma,infomuseodellamente.it,www.museodellamente.it,padiglione 6,pad. 6 ex ospedale pschiatrico santa maria della piet,668352923,,,,non mibact,668352927
Lazio,330,,,186.0,,,roma,museo ebraico di roma,largo xvi ottobre,41.8709925,12.4852653,,omr,,roma,infomuseoebraico.roma.it,www.museoebraico.roma.it,sinagoga,c/o sinagoga,668400639,,,,non mibact,668400661
Lazio,331,,,16.0,,,roma,museo della strumentazione e informazione cristallografica,via salaria km 293,41.902783500000005,12.4963655,,,,roma,fausto.daprileic.cnr.it,www.cnr.it/sitocnr/iservizi/museidelcnr/cristallografica/informazionecristallografica.html,area ricerca cnr rm1,c/o istituto di cristallografia del cnr sede di roma,690672630,,,,non mibact,690672634
Lazio,332,,,187.0,,,roma,galleria dellaccademia nazionale di san luca,piazza dellaccademia di san luca 77 00187 roma,41.901669,12.483614900000001,,,,roma,archivioaccademiasanluca.it,www.accademiasanluca.it,,,669924362,,,,non mibact,66798850
Lazio,333,,,196.0,x,,roma,museo hendrik christian andersen,via p. s. mancini 18/24,41.914155900000004,12.470504400000001,,,,roma,s gnam.museoandersenbeniculturali.it,www.museoandersen.beniculturali.it,,,63219089,,,,mibact,63219089
Lazio,334,,,186.0,,,roma,pantheon,piazza della rotonda snc,42.0339149,13.4299497,,,,roma,sbap rm.pantheonbeniculturali.it,www.sbap roma.beniculturali.it,,,06 683002,,,,mibact,06 683002
Lazio,335,,,186.0,,,roma,monumento a vittorio emanuele ii vittoriano,piazza venezia,41.8959938,12.482046,,,,roma,dr lazbeniculturali.it,www.lazio.beniculturali.it,,,658434787,,,,mibact,66780664
Lazio,336,,,3046.0,,,san donato val di comino,museo della civilta contadina,viale tenente maurizio simone snc,41.7089032,13.812641399999999,,,,arsoli,infocomune.sandonatovaldicomino.fr.it,,,edificio scuola elementare,776508918,,,,non mibact,776508701
Lazio,337,,,1100.0,,,san martino al cimino,museo dellabate,piazza delloratorio,42.369345700000004,12.1250064,,omr,,viterbo,,,,scriptorium dellabbazia cistercense,,,,rete urbana di viterbo,non mibact,0761 379803
Lazio,338,,,60.0,,,santoreste,museo naturalistico del monte soratte,piazza cavalieri caccia,42.2520515,12.4611825,,omr,,roma,museodelmontesorattelibero.it museodelfiumelibero.it,,,,761578443,,,,non mibact,761578185
Lazio,339,,,,,,santa marinella,museo del mare e della navigazione antica,via del castello aurelia s.s 1 km. 52600,42.0165652,11.955297199999999,,omr,,roma,,www.museosantasevera.org,area archeologica di pyrgi,castello di santa severa,,,proust,,non mibact,0766 570077
Lazio,340,,,20.0,,,saracinesco,museo del tempo,centro storico e borgo allaperto,42.0031174,12.953347099999998,,omr,,roma,,www.tibursuperbum.it/ita/escursioni/saracinesco/museotempo.htm,,,,,,sistema pre.gio,non mibact,
Lazio,341,,,4010.0,,,sermoneta,museo diocesano darte sacra sezione di sermoneta,piazza santa maria snc,41.5484988,12.9839569,,omr,,latina,beniculturalidiocesi.latina.it,,,,7736986111,,musart,,non mibact,7736986105
Lazio,342,,,4013.0,,,sermoneta,abbazia di valvisciolo,via badia 14,41.5499706,12.983686800000001,,omr,,latina,abbaziavalviscioloyahoo.it,,monte corvino,monastero cistercense,,,musart,,non mibact,0773 30013
Lazio,343,,,3010.0,,,serrone,esposizione permanente di costumi teatrali,piazza plebiscito,41.8433999,13.0852524,,,,frosinone,turismo.serronegmail.com,www.comune.serrone.fr.it,serrone,centro storico,775523277,,,,non mibact,775523064
Lazio,344,,,4010.0,,,sezze,foro appio,via appia km 72800 5,41.4994158,13.0617578,,,,latina,infoforoappiohotel.it,www.foroappiohotel.it,borgo faiti,,773800247,,,,non mibact,773877434
Lazio,345,,,3039.0,,,sora,museo civico della media valle delliri,piazza mayer ross snc,41.7188539,13.613049100000001,,omr,,frosinone,museo.soracomune.sora.fr.it,www.comune.sora.fr.it,sora,,776833327,,proust,,non mibact,776833327
Lazio,346,,,4029.0,,,sperlonga,museo archeologico nazionale e area archeologica,via flacca km 16300,41.2259953,13.515243400000001,,,,latina,sba laz.sperlongabeniculturali.it,www.archeolz.arti.beniculturali.it,,,0771 548028,,,,mibact,0771 548028
Lazio,347,,,1015.0,,,sutri,anfiteatro romano,via cassia km 49,42.2439027,12.2185381,,,,viterbo,,,,,,,,,mibact,
Lazio,348,,,1016.0,,,tarquinia,necropoli,via ripagretta snc,42.2541846,11.7575684,,,,viterbo,,htpp//etruriameridionale.beniculturali.it/index.phpit/201/descrizione,calvario,,,,,,mibact,0766 856308
Lazio,349,,,10.0,,,tivoli,area archeologica di villa adriana,largo marguerite yourcenar 1,41.959817,12.8022261,,,,roma,villaadrianabeniculturali.it,www.villaadriana.beniculturali.it,villa adriana,,0774 531979,,,,mibact,0774 530203
Lazio,350,,,59.0,,,tolfa,museo civico archeologico,largo 15 marzo 1799 snc,42.1497058,11.9380648,,,,roma,museotolfatiscali.it,,,ex convento dei padri agostiniani,7669390243,,,,non mibact,76692127
Lazio,351,,,3010.0,,,trevi nel lazio,museo archeologico domenico antonio pierantoni,via eresio fertore,41.8755794,12.6115341,,omr,,frosinone,,,,castello caetani,,,,sistema pre.gio,non mibact,
Lazio,352,,,1017.0,,,tuscania,raccolta di montebello del maestro giuseppe cesetti,centro strada montebello 3,42.3550533,11.8011922,,,,viterbo,,,,,,,,,non mibact,761442695
Lazio,353,,,1017.0,,,tuscania,museo archeologico nazionale,largo mario moretti 1,42.421493100000006,11.8705543,,,,viterbo,sba embeniculturali.it,htpp//etruriameridionale.beniculturali.it,,c/o chiesa della madonna del riposo,0761 436209,,,,mibact,0761 436209
Lazio,354,,,20.0,,,vallepietra,sale museali ex voto santuario santissima trinita valle pietra,santuario santissima trinita,41.9257111,13.230550099999999,,,,roma,p.vallepietratiscalinet.it,,vallepietra,santuario,774899084,,,,non mibact,774899084
Lazio,355,,,1100.0,,,viterbo,confraternita ss.sacramento e s.rosario,piazza oratorio 5,42.4157698,12.113354,,,,viterbo,confraternitasanmartinogmail.com,www.abbaziasanmartinoalcimino.it,frazione s. martino al cimino,abbazia cistercense di s.martino al cimino,,,,,non mibact,761379301
Lazio,356,,,1100.0,,,viterbo,area archeologica antica citt di ferento,strada provinciale teverina km 8000,42.4206766,12.107669,,,,viterbo,,,,,,,,,mibact,
Sicilia,0,"6,00","3,00",,,musei archeologici,mazara del vallo,museo del satiro chiesa di santegidio,"chiesa di santegidio, piazza plebiscito",,,luned 19 giugno chiusura per disinfestazione,,"tutti i giorni, compresi i festivi, dalle 9,00 alle 19,45. servizio di biglietteria sino alle 19.15",trapani,,,,,,http//www.regione.sicilia.it/beniculturali/dirbenicult/database/page musei/pagina musei.aspid33ampidsito87,,,,0923933917
Sicilia,1,"2,00","1,00",,,musei etnoantropologici,palazzolo acreide,museo regionale casa museo antonino uccello a palazzolo acreide,"via machiavelli, 19",,,"biglietto unico casa museo e area archeologica di akrai intero 5,00 ridotto 2,50.",,giorni feriali dal luned a sabato dalle 9.00 alle 19.00. festivi tranne prima e terza domenica del mese dalle 14.00 alle 19.30. prima e terza domenica del mese dalle 9.00 alle 13.30. chiusura biglietteria mezzora prima.,siracusa,,,,,,http//www.regione.sicilia.it/beniculturali/dirbenicult/database/page musei/pagina musei.aspid15ampidsito84,,,,0931 881499
Sicilia,2,"2,00","1,00",,,aree archeologiche,ispica,area archeologica parco forza,"ispica, via cavagrande,snc",,,dipende dal polo regionale di ragusa per i siti archeologici e per i parchi archeologici di kamarina e cava ispica. la prima domenica di ogni mese ingresso gratuito,,"dal 1 aprile tutti i giorni, festivi compresi, dalle 9.00 alle 18.15",ragusa,,,,,,http//www.regione.sicilia.it/beniculturali/dirbenicult/database/page musei/pagina musei.aspid189ampidsito126,,,,0932952608
Sicilia,3,,,,,aree archeologiche,gela,castelluccio,contrada cucinella spataro. ss 117 bis,,,biglietto unico con museo archeologico regionale di gela,,chiuso temporaneamente,caltanissetta,,,,,,http//www.regione.sicilia.it/beniculturali/dirbenicult/database/page musei/pagina musei.aspid322ampidsito21,,,,0933912626
Sicilia,4,gratuito,gratuito,,,aree archeologiche,terme vigliatore,villa romana di san biagio,"via nazionale 3, localit san biagio",,,,,giorni feriali da aprile a settembre ore 0900/1900 festivi da giugno a settembre ore 0900/1900.,messina,,,,,,http//www.regione.sicilia.it/beniculturali/dirbenicult/database/page musei/pagina musei.aspid44ampidsito51,,,,0909740488
Sicilia,5,"4,00","2,00",,,aree archeologiche e antiquarium,gela,antiquarium iconografico e mura timoleontee di capo soprano,contrada scavone viale indipendenza,,,"apertura tutte le domeniche di giugno e luglio fino alle ore 13,00 ultimo ingresso ore 12,30biglietto unico con il museo archeologico regionale di gela",,"in ora solare, dal luned al sabato, dalle 9,30 alle 13,00 e dalle 14,00 alle 18,00 ultimo ingresso ore 17,30. chiuso i festivi tranne la prima domenica di ogni mese, dalle 9,00 alle 13,00 ultimo ingresso ore 12,30",caltanissetta,,,,,,http//www.regione.sicilia.it/beniculturali/dirbenicult/database/page musei/pagina musei.aspid37ampidsito20,,,,093391226 0933930975
Sicilia,6,"6,00","3,00",,,monumentale,monreale,chiostro santa maria la nuova duomo,piazza guglielmo il buono,,,prima domenica del mese ingresso gratuito,,"da luned a sabato 9,00 19,00 ultimo ingresso 18,30 domenica e festivi 9,00 13,30 ultimo ingresso 13,00",palermo,,,,,,http//www.regione.sicilia.it/beniculturali/dirbenicult/database/page musei/pagina musei.aspid49ampidsito63,,,,0917071425 0917071411 0916404403
Sicilia,7,gratuito,gratuito,,,aree archeologiche,noto,area archeologica di eloro,,,,,,chiuso,siracusa,,,,,,http//www.regione.sicilia.it/beniculturali/dirbenicult/database/page musei/pagina musei.aspid182ampidsito82,,,,
Sicilia,8,gratuito,gratuito,,,monumentale,palermo,palazzo ajutamicristo,"via garibaldi, 41",,,prima domenica del mese apertura dalle 9.00 alle 13.00,,"martedi e sabato dalle 9.00 alle 18.30. luned, mercoled, gioved, venerd dalle 9.00 alle 13.30.",palermo,,,,,,http//www.regione.sicilia.it/beniculturali/dirbenicult/database/page musei/pagina musei.aspid175ampidsito135,,,,0917071425 3357957161
Sicilia,9,"5,00","2,50",,,aree archeologiche,siracusa,percorso ipogeico di piazza duomo,piazza duomo 14,,,,,in atto chiuso,siracusa,,,,,,http//www.regione.sicilia.it/beniculturali/dirbenicult/database/page musei/pagina musei.aspid96ampidsito117,,,,0931450801
Sicilia,10,gratuito,gratuito,,,musei etnoantropologici,mistretta,museo delle tradizioni silvo pastorali di mistretta,via libert 184,,,"per la disattivazione delle linee telefoniche di rete fissa, le comunicazioni al museo potranno essere inviate alle caselle polomuseale.me.uo3regione.sicilia.it e museo.messina.uo3regione.sicilia.it",,"fino al 30 aprile aperto da marted a sabato, dalle 9,00 alle 13,00. da maggio aperto da marted a domenica 9,00 13,00. 1 maggio aperto.",messina,,,,,,http//www.regione.sicilia.it/beniculturali/dirbenicult/database/page musei/pagina musei.aspid6ampidsito127,,,,0921381696 temporaneamente disattivato
Sicilia,11,,,,,monumentale,palermo,real albergo dei poveri,corso calatafimi 217,,,"sede espositiva per mostre temporanee, dipendente dal polo regionale di palermo per i parchi e i musei archeologici",,"da marted a sabato, dalle 9.30 alle 18,30. domeniche e festivi dalle 9,30 alle 13,30. luned chiuso",palermo,,,,,,http//www.regione.sicilia.it/beniculturali/dirbenicult/database/page musei/pagina musei.aspid171ampidsito131,,,,091422314
Sicilia,12,gratuito,gratuito,,,aree archeologiche,palermo,villino florio e giardino,via regina margherita,,,,,da marted a sabato dalle 9.00 alle 13.00. prima domenica del mese ingresso gratuito dalle 9.00 alle 13.30 chiusura biglietteria 30 minuti prima. luned chiuso,palermo,,,,,,http//www.regione.sicilia.it/beniculturali/dirbenicult/database/page musei/pagina musei.aspid176ampidsito119,,,,0917025471 0917071425
Sicilia,13,"6,00","3,00",,,monumentale,palermo,chiostro di san giovanni degli eremiti,via dei benedettini 20,,,prima domenica del mese ingresso gratuito,,"da luned a sabato 9,00 19,00 ultimo ingresso 18,30 domenica e festivi 9,00 13,30 ultimo ingresso 13,00",palermo,,,,,,http//www.regione.sicilia.it/beniculturali/dirbenicult/database/page musei/pagina musei.aspid48ampidsito58,,,,0917071425 0916515019 0917071411
Sicilia,14,gratuito,gratuito,,,monumentale,villafranca tirrena,castello di bauso,piazza castello,,,,,da luned a venerd dalle 9 alle 13. mercoled dalle 15.30 alle 17.30. domenica e festivi su prenotazione. rivolgersi alla pro loco 3933687036 o allufficio del turismo 0903310311,messina,,,,,,,,,,090334948
Sicilia,15,,,,,aree archeologiche,piazza armerina,museo regionale della villa romana del casale a piazza armerina,"piazza armerina, piazza cattedrale 20 palazzo trigona",,,museo in allestimento. per informazioni urpmuseo.casaleregione.sicilia.it oppure visita www.villaromanadelcasale.it.,,non aperto al pubblico,enna,,,,,,http//www.regione.sicilia.it/beniculturali/dirbenicult/database/page musei/pagina musei.aspid39ampidsito124,,,,0935687667
Sicilia,16,gratuito,gratuito,,,aree archeologiche,cefala diana,bagni di cefal diana,cefal diana seguire indicazioni,,,,,"gioved e sabato 9,00 19,00 marted, mercoled e venerd 9,00 14,00. prima domenica del mese 9.00 13.30. ultimo ingresso 30 minuti prima della chiusura. luned chiuso",palermo,,,,,,http//www.regione.sicilia.it/beniculturali/dirbenicult/database/page musei/pagina musei.aspid324ampidsito156,,,,0917071425 rangers 0918291551
Sicilia,17,gratuito,gratuito,,,aree archeologiche,licata,area archeologica di monte santangelo e castel santangelo,zona archeologica di castel santangelo licata,,,,,"da luned al sabato dalle ore 9,00 alle ore 13,30. tutte le domeniche e le festivit chiusura totale",agrigento,,,,,,http//www.regione.sicilia.it/beniculturali/dirbenicult/database/page musei/pagina musei.aspid160ampidsito14,,,,0922772602
Sicilia,18,gratuito,gratuito,,,parco naturalistico,taormina,giardino di villa caronia,via pirandello 107 taormina sicily italy,,,audio tour link izi.travel https//izi.travel/it/italia/guide di citta in sicilia taorminascarica app su izitravel,,www.parconaxostaormina.it aperto da lunedi a venerdi dalle 9.30 alle 13.30 chiuso sabato e domenica.,messina,,,,,,,,,,direzione tel 0942628738 fax 0942628738
Sicilia,19,gratuito,gratuito,,,aree archeologiche,licata,area archeologica di licata,contrada stagnone pontillo,,,,,"nei giorni 16 aprile, 17 aprile, 23 aprile, 25 aprile, 30 aprile, 1 maggio 2017 larea archeologica rimarr chiusa",agrigento,,,,,,http//www.regione.sicilia.it/beniculturali/dirbenicult/database/page musei/pagina musei.aspid157ampidsito11,,,,0922772602
Sicilia,20,"6,00","3,00",,,zone archeologiche e antiquarium,patti,area archeologica teatro antico e antiquarium di tindari,via del teatro greco localit tindari,,,"dal 1 settembre 2015 istituito il biglietto unico per la visita della villa romana di patti marina e dellarea archeologica di tindari tariffa intera di 8,00 e ridotta di 4,00, la cui validit di tre giorni dalla data di emissione.",,"maggio, giugno, luglio e agosto ore 0900/1900. dal 1 al 15 settembre ore 0900/1830 dal 16 al 30 settembre ore 0900/1800.",messina,,,,,,http//www.regione.sicilia.it/beniculturali/dirbenicult/database/page musei/pagina musei.aspid46ampidsito48,,,,0941369023
Sicilia,21,ingresso libero,ingresso libero,,,aree archeologiche,adrano,mura dionigiane,via catania,,,,,in atto chiuse al pubblico,catania,,,,,,http//www.regione.sicilia.it/beniculturali/dirbenicult/database/page musei/pagina musei.aspid167ampidsito36,,,,3315771468
Sicilia,22,"4,00","2,00",,,musei archeologici,ragusa,museo regionale di kamarina,s.p. 102 km.1 c.da cammarana ragusa. indirizzo postale 97019 scoglitti rg c.p. n.60. mail museo.camarinaregione.sicilia.it,,,dipende dal polo regionale di ragusa per i siti archeologici e per i parchi archeologici di kamarina e cava ispica,,aperto tutti i giorni feriali dalle 9.00 alle 14.00 e dalle 15.00 alle 19.00. apertura festiva solo la prima domenica del mese,ragusa,,,,,,http//www.regione.sicilia.it/beniculturali/dirbenicult/database/page musei/pagina musei.aspid29ampidsito121,,,,0932 826004
Sicilia,23,gratuito,gratuito,,,antiquaria,ravanusa,zona archeologica,monte saraceno ravanusa,,,,,"giorni ferialiaperto tutti i giorni dalle 8,30 alle 19.domeniche e festivit infrasettimanalechiuso",agrigento,,,,,,http//www.regione.sicilia.it/beniculturali/dirbenicult/database/page musei/pagina musei.aspid327ampidsito161,,,,centralino soprintendenza bb.cc.aa. di agrigento 0922552611
Sicilia,24,"4,00","2,00",,,musei e gallerie,agrigento,biblioteca museo regionale luigi pirandello di agrigento,casa natale di luigi pirandello contrada caos villaseta,,,"il 6 luglio 2017 la casa natale sar aperta al pubblico soltanto dalle 9,00 alle 13,30 ultimo ingresso mezzora prima della chiusura. chiusura al pubblico dalle ore 14,00.",,"aperta dal luned al sabato dalle 9,00 alle 13,30 e dalle 14,30 alle 19,30 ultimo ingresso mezzora prima della chiusura. domenica e festivi dalle 9,00 alle 13,30.prima domenica del mese ingresso gratuito.",agrigento,,,,,,http//www.regione.sicilia.it/beniculturali/dirbenicult/database/page musei/pagina musei.aspid1ampidsito6,,,,0922511826 e mail polomuseale.ag.uo3regione.sicilia.it
Sicilia,25,,,,,musei archeologici e zone archeologiche,lercara friddi,parco archeologico industriale e museo della zolfara di lercara friddi,via vittorio emanuele iii 52 villa rose gardner,,,,,"chiuso, in allestimento",palermo,,,,,,http//www.regione.sicilia.it/beniculturali/dirbenicult/database/page musei/pagina musei.aspid316ampidsito153,,,,091 8252212 3346476411
Sicilia,26,gratuito,gratuito,,,aree archeologiche,catania,terme della rotonda,via della mecca,,,,,tutti i mercoled e tutte le domeniche dalle ore 9.00 alle 13.00.,catania,,,,,,http//www.regione.sicilia.it/beniculturali/dirbenicult/database/page musei/pagina musei.aspid150ampidsito33,,,,095/7150508 polomuseale.ctregione.sicilia.it poloregionalect.urpregione.sicilia.it
Sicilia,27,"6,00","3,00",,,antiquaria,sambuca di sicilia,antiquarium di monte adranone,antiquarium palazzo panitteri e zona archeologica monte adranone in sambuca di sicilia,,,il museo archeologico palazzo panitteri gestito dal comune di sambuca di sicilia.il biglietto comprende lingresso a monte adranone palazzo panitteri in sambuca di sicilia e antiquarium di monte kronio in sciacca.,,"orario di apertura al pubblico da marted al sabato dalle 8,00 alle 19,30. la prima domenica di ogni mese apertura al pubblico dalle 8,00 alle 14,00. tutti i luned, le altre domeniche e le festivit chiusura totale",agrigento,,,,,,http//www.regione.sicilia.it/beniculturali/dirbenicult/database/page musei/pagina musei.aspid156ampidsito13,,,,0925946083
Sicilia,28,gratuito,gratuito,,,aree archeologiche,catania,terme romane dellindirizzo,piazza curr,,,,,le terme romane dellindirizzo sono visitabili su prenotazione,catania,,,,,,http//www.regione.sicilia.it/beniculturali/dirbenicult/database/page musei/pagina musei.aspid151ampidsito31,,,,095/7150508 polomuseale.ctregione.sicilia.it poloregionalect.urpregione.sicilia.it
Sicilia,29,"4,00","2,00",,,antiquaria,sciacca,antiquarium di monte kronio stufe di s. calogero,monte cronio sciacca,,,"e possibile acquistare il biglietto cumulativo intero 6,00, ridotto 3,00 per la visita di monte adranone e palazzo panitteri in sambuca di sicilia e antiquarium di monte kronio in sciacca.",,"da luned a venerd dalle 9 alle 19.30. sabato dalle 9 alle 13.30. la prima domenica di ogni mese apertura al pubblico dalle 9.00 alle 13.00.tutte le altre domeniche, comprese le festivit, chiusura totale",agrigento,,,,,,http//www.regione.sicilia.it/beniculturali/dirbenicult/database/page musei/pagina musei.aspid155ampidsito95,,,,092528989
Sicilia,30,"6,00","3,00",,,musei archeologici,lipari,museo archeologico regionale bernabo brea a lipari,"via del castello, 2 98055 lipari",,,ingresso gratuito nella prima domenica di ogni mese.,,"aperto tutti i giorni feriali dalle 9,00 alle 19,30 ultimo ingresso ore 18,30. domenica e festivi aperto dalle 9,00 alle 13,30.",messina,,,,,,http//www.regione.sicilia.it/beniculturali/dirbenicult/database/page musei/pagina musei.aspid26ampidsito45,,,,0909880174/594 fax 0909880175
Sicilia,31,"6,00","3,00",,,aree archeologiche,aidone,area archeologica di morgantina,contrada morgantina,,,"vendita biglietti ridotti e cumulativi di due o tre siti tra area di morgantina, museo di aidone e villa del casale.",,"aperta tutti i giorni, compresi i festivi, dalle 11,00 alle 19,00,orario continuatoultimo ingresso alle ore 18.00",enna,,,,,,http//www.regione.sicilia.it/beniculturali/dirbenicult/database/page musei/pagina musei.aspid40ampidsito41,,,,093587955
Sicilia,32,gratuito,gratuito,,,musei archeologici,ravanusa,museo archeologico salvatore lauricella,corso della repubblica 27 ravanusa,,,,,"tutti i giorni dalle 8,30 alle 13,30 con esclusione dei giorni festivi",agrigento,,,,,,http//www.regione.sicilia.it/beniculturali/dirbenicult/database/page musei/pagina musei.aspid328ampidsito173,,,,comune di ravanusa ag
Sicilia,33,"10,00","5,00",,,aree archeologiche,agrigento,valle dei templi di agrigento,"via panoramica dei templi, snc casa sanfilippo",,,,,vedi sito internet del parco archeologico,agrigento,,,,,,http//www.regione.sicilia.it/beniculturali/dirbenicult/database/page musei/pagina musei.aspid34ampidsito8,,,,vedi sito internet del parco archeologico
Sicilia,34,"4,00","2,00",,,aree archeologiche,palazzolo acreide,area archeologica di akrai,colle dellacromonte,,,"biglietto cumulativo con casa museo uccello 5.00 ridotto 2,50",,"tutti i giorni dalle 8,30 alle 19.00 chiusura biglietteria 18.00",siracusa,,,,,,http//www.regione.sicilia.it/beniculturali/dirbenicult/database/page musei/pagina musei.aspid56ampidsito85,,,,0931876602
Sicilia,35,gratuito,gratuito,,,monumentale,agrigento,santa maria dei greci,via santa maria dei greci,,,si comunica che il sito rester chiuso giorno 14 luglio 2017 per intervento di disinfestazione e derattizzazione,,"giorni ferialiaperto tutti i giorni dalle 8,30 alle 19aperto la prima domenica del mese dalle 8,30 alle 13,30 il luned successivo dalle 8,30 alle 13,30",agrigento,,,,,,,,,,centralino soprintendenza bb.cc.aa. di agrigento 0922552611
Sicilia,36,gratuito,gratuito,,,musei archeologici,enna,museo regionale interdisciplinare di enna,piazza mazzini 8,,,dall8 gennaio per le avverse condizioni meteorologiche il museo aprir soltanto in orario antimeridiano sino a nuova comunicazione,,"da luned a sabato, dalle 9,00 alle 18,00 uscita entro le 19.00. festivi soltanto la prima domenica del mese, con ingresso sempre gratuito.",enna,,,,,,http//www.regione.sicilia.it/beniculturali/dirbenicult/database/page musei/pagina musei.aspid21ampidsito39,,,,09355076304 fax 09355076323
Sicilia,37,gratuito,gratuito,,,aree archeologiche,tusa,area archeologica halaesa arconidea,contrada santa maria delle palate,,,giorni 8 e 9 maggio 2017 il sito sar chiuso al pubblico per disinfestazione.,,"orario di apertura da marted a domenica dalle 9,00 alle 18,30. orario biglietteria 9,00/18,00",messina,,,,,,http//www.regione.sicilia.it/beniculturali/dirbenicult/database/page musei/pagina musei.aspid45ampidsito52,,,,"si informa che per la temporanea disattivazione delle linee telefoniche di rete fissa, le comunicazioni potranno essere inviate alle caselle polomuseale.me.uo3regione.sicilia.it e museo.messina.uo3regione.sicilia.it"
Sicilia,38,gratuito,gratuito,,,aree archeologiche,caltanissetta,area archeologica gibil gabib,contrada gibil gabib,,,per ragioni di sicurezza il sito non temporaneamente visitabile.,,visitabile su prenotazione inviando richiesta a sopriclregione.sicilia.it,caltanissetta,,,,,,http//www.regione.sicilia.it/beniculturali/dirbenicult/database/page musei/pagina musei.aspid163ampidsito18,,,,0934554964
Sicilia,39,"6,00","3,00",,,aree archeologiche,castelvetrano,area archeologica selinunte,via selinunte,,,"modalit di pagamento ingresso alle aree del parco contanti allo sportello della biglietteria, pos allo sportello della biglietteria bonifico bancario istruzioni sulla pagina del parco",,"apertura alle 9,00. dal 1 marzo chiusura alle ore 17.00 uscita entro le 18.00. dal 26 marzo chiusura alle ore 18.00 uscita entro le 19.00.",trapani,,,,,,http//www.regione.sicilia.it/beniculturali/dirbenicult/database/page musei/pagina musei.aspid58ampidsito92,,,,092446277
Sicilia,40,gratuito,gratuito,,,aree archeologiche e antiquarium,caltanissetta,area archeologica e antiquarium di sabucina,contrada sabucina,,,per ragioni di sicurezza il sito non temporaneamente visitabile.,,visitabile su prenotazione inviando richiesta a sopriclregione.sicilia.it,caltanissetta,,,,,,http//www.regione.sicilia.it/beniculturali/dirbenicult/database/page musei/pagina musei.aspid36ampidsito17,,,,0934554964
Sicilia,41,"4,00","2,00",,,aree archeologiche e antiquarium,santa flavia,area archeologica e antiquarium di solunto,via collegio romano localit solunto,,,dipende dal polo regionale di palermo per i parchi e i musei archeologici. la prima domenica di ogni mese lingresso gratuito.,,dalle 9.30 alle 19.30. domenica e festivi dalle 9.30 alle 13.30. luned chiuso. ultimo ingresso sempre unora prima.,palermo,,,,,,http//www.regione.sicilia.it/beniculturali/dirbenicult/database/page musei/pagina musei.aspid51ampidsito62,,,,ufficio amministrativo 091905043 area parco archeologico 091909339
Sicilia,42,gratuito,gratuito,,,musei archeologici,centuripe,museo archeologico regionale di centuripe,via ss. crocifisso 1,,,,,tutti i giorni dalle 9.00 alle 19.00.,enna,,,,,,http//www.regione.sicilia.it/beniculturali/dirbenicult/database/page musei/pagina musei.aspid317ampidsito154,,,,093573079
Sicilia,43,"10,00","5,00",,,aree archeologiche,taormina,teatro greco romano di taormina,via del teatro greco 40 taormina sicily italy,,,audio tourlink izi.travel https//izi.travel/it/italia/guide di citta in sicilia taorminascarica app su izitravel,,"aperto tutti i giorni dalle 9.00 ad unora prima del tramontowww.parconaxostaormina.it, vedi orari e modalit di visita.",messina,,,,,,http//www.regione.sicilia.it/beniculturali/dirbenicult/database/page musei/pagina musei.aspid43ampidsito50,,,,direzione 0942 628738 / biglietteria teatro 094223220 / uffici teatro 094224291
Sicilia,44,"4,00","2,00",,,aree archeologiche,caccamo,castello medievale di caccamo,via del castello,,,,,"da marted a domenica, dalle 9.00 alle 13.00 e dalle 15.00 alle 19",palermo,,,,,,http//www.regione.sicilia.it/beniculturali/dirbenicult/database/page musei/pagina musei.aspid325ampidsito130,,,,ufficio turismo tel. 0918103207/221 turismocomune.caccamo.pa.itbiglietteria castello tel. 091/8149252castellocomune.caccamo.pa.it
Sicilia,45,gratuito,gratuito,,,monumentale,palermo,convento della magione,piazza magione,,,,,"marted e sabato ore 9,00 19,00 ultimo ingresso ore 18,30 luned, mercoled, gioved, venerd ore 9,00 13,30 ultimo ingresso ore 13,00 domenica e festivi chiuso",palermo,,,,,,http//www.regione.sicilia.it/beniculturali/dirbenicult/database/page musei/pagina musei.aspid97ampidsito111,,,,0917071425 0917071411
Sicilia,46,gratuito,gratuito,,,monumentale,palermo,giardino di villa napoli e piccola cuba,via f. speciale,,,,,visitabile su prenotazione,palermo,,,,,,http//www.regione.sicilia.it/beniculturali/dirbenicult/database/page musei/pagina musei.aspid12ampidsito109,,,,3346001743 0917071425
Sicilia,47,"2,00","1,00",,,aree archeologiche,palermo,area archeologica monumentale di castello a mare,via crispi ingresso via patti,,,dipende dal polo regionale di palermo per i parchi e i musei archeologici.,,"da marted a sabato, dalle 9.30 alle 18,30. domeniche e festivi dalle 9,30 alle 13,30. luned chiuso",palermo,,,,,,http//www.regione.sicilia.it/beniculturali/dirbenicult/database/page musei/pagina musei.aspid92ampidsito59,,,,0917071317/411
Sicilia,48,gratuito,gratuito,,,musei archeologici,licata,museo archeologico regionale della badia,via dante 12 licata,,,,,"da marted al sabato dalle ore 9,00 alle ore 13,00. il gioved e il sabato apertura anche il pomeriggio dalle ore 16,00 alle ore 18,00. tutte le domeniche, i luned e le festivit chiusura totale",agrigento,,,,,,http//www.regione.sicilia.it/beniculturali/dirbenicult/database/page musei/pagina musei.aspid17ampidsito10,,,,0922 772602
Sicilia,49,gratuito,gratuito,,,aree archeologiche,mineo,area archeologica di palike,contrada rocchicella,,,"giorno 17 maggio 2017, in occasione della festa del santo patrono a mineo, il sito archeologico di palik rimarr chiuso",,"chiusa luned, domenica e festivi. aperta da marted a sabato dalle 9 alle 13.00 mercoled dalle 9 alle alle 17.30.",catania,,,,,,http//www.regione.sicilia.it/beniculturali/dirbenicult/database/page musei/pagina musei.aspid38ampidsito37,,,,3315771468
Sicilia,50,gratuito,gratuito,,,musei e gallerie,palermo,castello della favara a maredolce,via giafar svincolo porto,,,"il sito sar chiuso al pubblico dal 20 giugno al 4 luglio 2017 per lo svolgimento del workshop internazionale maredolce la favara. un nuovo paesaggio per brancaccio, palermo.",,"aperto da luned a sabato e ogni prima domenica del mese, con i seguenti orari luned, mercoled, gioved, venerd e prima domenica dalle 9 alle 13, marted e sabato dalle 9 alle 18.30",palermo,,,,,,http//www.regione.sicilia.it/beniculturali/dirbenicult/database/page musei/pagina musei.aspid173ampidsito134,,,,0917071425 3357957161
Sicilia,51,"2,00","1,00",,,aree archeologiche,palermo,castello della cuba e necropoli punica,corso calatafimi 100,,,"necropoli punica pasqua, pasquetta, 25 aprile e 1 maggio aperto dalle 9.30 dalle 13.30.",,"da luned a sabato ore 9,00 19,00 ultimo ingresso 18,30, domenica e festivi chiuso. prima domenica del mese ingresso gratuito ore 9,00 13,30 ultimo ingresso 13,00. pasqua, luned dellangelo e 25 aprile chiusura",palermo,,,,,,http//www.regione.sicilia.it/beniculturali/dirbenicult/database/page musei/pagina musei.aspid47ampidsito57,,,,0917071425 091590299
Sicilia,52,gratuito,gratuito,,,musei archeologici,marianopoli,museo archeologico regionale di marianopoli,viale regione siciliana,,,,,giugno luglio da marted a domenica dalle ore 9.00 alle ore 13.00 e dalle ore 15.30 alle ore 19.00chiuso tutti i luned,caltanissetta,,,,,,http//www.regione.sicilia.it/beniculturali/dirbenicult/database/page musei/pagina musei.aspid20ampidsito26,,,,0934554964
Sicilia,53,"6,00","3,00",,,musei e gallerie,palermo,museo regionale palazzo mirto,"via merlo 2, palermo",,,"biglietto cumulativo 10,00 vaidit 3 giorni per palazzo mirto, palazzo abatellis, oratorio dei bianchi.",,"luned chiusura settimanale. da marted a sabato 9,00 18,00 domenica e festivi 9,00 13,00. la prima domenica di ogni mese ingresso gratuito. 26 e 27 giugno chiusura per disinfestazione",palermo,,,,,,http//www.regione.sicilia.it/beniculturali/dirbenicult/database/page musei/pagina musei.aspid10ampidsito55,,,,tel e fax 0916164751 tel 0916167541e mail polomuseale.pa.uo4regione.sicilia.ithttps//www.facebook.com/pages/casa museo palazzo mirto/265051623703706
Sicilia,54,"8,00","6,00",,,musei e gallerie,palermo,oratorio dei bianchi,piazzetta dei bianchi,,,mostra serpotta e il suo tempo 23 giugno 1 ottobre 2017info e prenotazioni 0918887767,,dal marted alla domenica 10.00 13.30 / 16.30 20.00 luned chiuso.orario valido esclusivamente per il periodo della mostra,palermo,,,,,,http//www.regione.sicilia.it/beniculturali/dirbenicult/database/page musei/pagina musei.aspid142ampidsito113,,,,telefono 0916173080 fax 0916165305 mailpolomuseale.paregione.sicilia.iturp 0916230068
Sicilia,55,gratuito,gratuito,,,monumentale,palermo,casina cinese,via duca degli abruzzi,,,"prima domenica del mese ingresso gratuito ore 9,00 13,30",,da marted a sabato dalle 9.00 alle 19.00 chiusura biglietteria 30 minuti prima. aperta prima domenica del mese dalle 9.00 alle 13.30.,palermo,,,,,,http//www.regione.sicilia.it/beniculturali/dirbenicult/database/page musei/pagina musei.aspid141ampidsito133,,,,091 7071317/411
Sicilia,56,"4,00","2,00",,,aree archeologiche e antiquarium,augusta,area archeologica e antiquarium di megara hyblaea,contrada megara giannalena,,,,,"dal luned al sabato dalle 8,30 alle 19,00 chiusura biglietteria 18,00. festivi 2 luglio apertura 8.30 19.00chiusura biglietteria 18.00, altre domeniche 8.30 13.30 chiusura biglietteria 13,00",siracusa,,,,,,http//www.regione.sicilia.it/beniculturali/dirbenicult/database/page musei/pagina musei.aspid95ampidsito79,,,,09314508211
Sicilia,57,gratuito,gratuito,,,aree archeologiche,pantelleria,area archeologica dellantica cossyra,contrada mursia,,,,,,trapani,,,,,,http//www.regione.sicilia.it/beniculturali/dirbenicult/database/page musei/pagina musei.aspid184ampidsito108,,,,0923808111
Sicilia,58,"8,00","4,00",,,musei archeologici,siracusa,museo archeologico regionale paolo orsi di siracusa,viale teocrito 66,,,"lacquisto di biglietti non pu pi essere effettuato tramite bonifico sul contocorrente dellamministrazione regionale. per informazioni rivolgersi al concessionario thekey srl, amministrazionethekeygroup.eu",,"luned chiusura. da marted a sabato dalle 9.00 alle 19.00. festivi dalle 9.00 alle 14.00. ultimo ingresso unora prima. orari numismatica da marted a sabato dalle 9.00 alle 13.30, mercoled dalle 9.00 alle 17.30.",siracusa,,,,,,http//www.regione.sicilia.it/beniculturali/dirbenicult/database/page musei/pagina musei.aspid30ampidsito71,,,,0931489511 fax 0931489532apertura straordinaria luned 24 aprile e 1 maggio ore 9 14
Sicilia,59,gratuito,gratuito,,,aree archeologiche,milazzo,antiquarium di milazzo,via impallomeni 16,,,,,da marted al sabato ore 0900/1900 festivi e lunedi ore 0900/1300.,messina,,,,,,http//www.regione.sicilia.it/beniculturali/dirbenicult/database/page musei/pagina musei.aspid191ampidsito152,,,,0909223471
Sicilia,60,unico con museo di kamarina,unico con museo di kamarina,,,aree archeologiche,ragusa,area archeologica agora,"s.p. 102 km.1,5",,,,,chiusa per lavori di messa in sicurezza,ragusa,,,,,,http//www.regione.sicilia.it/beniculturali/dirbenicult/database/page musei/pagina musei.aspid177ampidsito125,,,,0932 826004
Sicilia,61,gratuito,gratuito,,,aree archeologiche,carlentini,area archeologica di leontinoi,contrada san mauro carlentini,,,,,"marted, gioved dalle 8.30 alle 13.45 chiusura biglietteria ore 13.00.gioved 27 e festivi chiuso",siracusa,,,,,,http//www.regione.sicilia.it/beniculturali/dirbenicult/database/page musei/pagina musei.aspid180ampidsito81,,,,0957832962 presso museo
Sicilia,62,,,,,aree archeologiche,gela,area archeologica bosco littorio emporio greco di gela,localit bosco littorio,,,,,chiuso temporaneamente,caltanissetta,,,,,,http//www.regione.sicilia.it/beniculturali/dirbenicult/database/page musei/pagina musei.aspid146ampidsito24,,,,0933912626
Sicilia,63,"3,00","1,50",,,monumentale,montalbano elicona,castello di montalbano elicona,via castello,,,"nei giorni di chiusura visitabile su prenotazione, tramite ufficio del turismo del comune 0941678019 0941670081",,da luned a venerdi dalle ore 0900 alle ore 1300 e dalle ore 1400 alle ore 1800.nei festivi dalle ore 0900 alle ore 1800 open day.lapertura sar prolungata nel periodo estivo,messina,,,,,,,,,,"09036746433, urp della soprintendenza di messina"
Sicilia,64,"6,00","3,00",,,aree archeologiche,palermo,castello della zisa,piazza zisa,,,,,"da luned a sabato 9,00 19,00 ultimo ingresso 18,30 domenica e festivi 9,00 13,30 ultimo ingresso 13,00",palermo,,,,,,http//www.regione.sicilia.it/beniculturali/dirbenicult/database/page musei/pagina musei.aspid11ampidsito56,,,,0916520269 0917071411
Sicilia,65,gratuito,gratuito,,,aree archeologiche,catania,anfiteatro romano di catania,piazza stesicoro,,,,,da marted a sabato dalle ore 9.00 alle ore 13.00 e dalle ore 14.30 alle ore 19.00.giorni di chiusuraluned e domenica.,catania,,,,,,http//www.regione.sicilia.it/beniculturali/dirbenicult/database/page musei/pagina musei.aspid147ampidsito28,,,,095/7150508 polomuseale.ctregione.sicilia.it poloregionalect.urp.regione.sicilia.it
Sicilia,66,gratuito,gratuito,,,aree archeologiche,favignana,grotta del genovese levanzo,,,,previa prenotazione escluso i festivi. la visita dura 2 ore ed guidata,,visitabile su prenotazione,trapani,,,,,,http//www.regione.sicilia.it/beniculturali/dirbenicult/database/page musei/pagina musei.aspid190ampidsito90,,,,0923808111
Sicilia,67,"4,00","2,00",,,musei archeologici,marsala,museo archeologico regionale lilibeo marsala baglio anselmi,lungomare boeo 30 91025 marsala,,,grotta della sibilla da marted a venerd 9.00 13.00 visite su richiesta.ipogeo crispia salvia da marted a venerd 9.00 13.00 visite su prenotazione.chiusura il luned. orari in vigore dal 18 aprile 2017,,"museo marted, domenica e festivi ore 9.00 13.30 ultimo 12.30 da mercoled a sabato 9.00 18.30 ultimo 17.30. area archeologica marted, domenica e festivi 9.00 12.30 da mercoled a sabato 9.00 17.30 ultimo 16.30. chiusura il luned",trapani,,,,,,http//www.regione.sicilia.it/beniculturali/dirbenicult/database/page musei/pagina musei.aspid32ampidsito88,,,,0923 952535 per le visite su prenotazione rivolgersi al personale o telefonare allo 0923 952535
Sicilia,68,"2,00","1,00",,,aree archeologiche,campobello di mazara,area archeologica cave di cusa vincenzo tusa,s.p. tre fontane,,,"modalit di pagamento ingresso alle aree del parco contanti allo sportello della biglietteria, pos allo sportello della biglietteria bonifico bancario istruzioni sulla pagina del parco",,"apertura alle 9,00. apertura alle 9,00. dal 1 marzo chiusura alle ore 13.00 uscita entro le 14.00.",trapani,,,,,,http//www.regione.sicilia.it/beniculturali/dirbenicult/database/page musei/pagina musei.aspid183ampidsito89,,,,092446277
Sicilia,69,gratuito,gratuito,,,musei archeologici,ragusa,museo regionale interdisciplinare di ragusa,via natalelli,,,dipende dal polo regionale di ragusa per i siti archeologici e per i parchi archeologici di kamarina e cava ispica,,"tutti i giorni feriali dalle ore 9,00 alle 18.30. apertura festiva solo la prima domenica di ogni mese",ragusa,,,,,,http//www.regione.sicilia.it/beniculturali/dirbenicult/database/page musei/pagina musei.aspid28ampidsito67,,,,0932622963 fax 0932622963
Sicilia,70,gratuito,gratuito,,,musei archeologici,lentini,museo archeologico regionale di lentini,via museo 1,,,,,luned chiuso. dal marted al sabato dalle 9.00 alle 19.00 chiusura biglietteria 18.00.domenica 2 9 30 luglio dalle 9.00 alle 13.30 chiusura biglietteria 13.00,siracusa,,,,,,http//www.regione.sicilia.it/beniculturali/dirbenicult/database/page musei/pagina musei.aspid31ampidsito80,,,,0957832962
Sicilia,71,gratuito,gratuito,,,aree archeologiche,siracusa,ginnasio romano,via elorina,,,,,chiuso,siracusa,,,,,,http//www.regione.sicilia.it/beniculturali/dirbenicult/database/page musei/pagina musei.aspid181ampidsito76,,,,09314508211
Sicilia,72,"6,00","3,00",,,musei e gallerie,palermo,museo regionale darte moderna e contemporanea di palermo,corso vittorio emanuele n. 365piazza bologni,,,"la prima domenica di ogni mese ingresso gratuito. prossima festivit venerd 2 giugno apertura del museo, orario 10.00 20.00la biglietteria chiude 30 minuti prima.",,"marted, mercoled e domenica ore 10,00 20,00la biglietteria chiude 30 minuti prima giovedi, venerd e sabato ore 10,00 24,00la biglietteria chiude 30 minuti prima. luned chiuso eccetto i festivi. la biglietteria chiude 30 minuti prima.",palermo,,,,,,http//www.regione.sicilia.it/beniculturali/dirbenicult/database/page musei/pagina musei.aspid9ampidsito112,,,,091320532 fax 0916090166
Sicilia,73,"6,00","3,00",,,musei e gallerie,trapani,museo regionale agostino pepoli di trapani museo interdisciplinare,via conte pepoli 180,,,,,"lunedichiuso. apertura da mercoled a sabato dalle 9,00 alle 17.30marterd dalle 9,00 alle 13,30 domeniche e festivi dalle ore 9,00 alle 12,30. la biglietteria termina il servizio mezzora prima della chiusura.",trapani,,,,,,http//www.regione.sicilia.it/beniculturali/dirbenicult/database/page musei/pagina musei.aspid14ampidsito86,,,,0923553269 fax 0923535444
Sicilia,74,"4,00","2,00",,,musei e gallerie,caltagirone,museo regionale della ceramica di caltagirone,giardino pubblico vittorio emanuele fino al 19 marzo 2017 succesivamente anche da via roma teatrino del bonaiuto,,,ingresso gratuito ai minori di 18 anni e ai cittadini dellunione europea nel giorno del loro compleanno. ingresso libero la prima domenica di ogni mese. visitate la pagina facebook.,,tutti i giorni dalle 9.00 alle 18.30 ultimo ingresso ore 18.00,catania,,,,,,http//www.regione.sicilia.it/beniculturali/dirbenicult/database/page musei/pagina musei.aspid2ampidsito38,,,,093358418 093358423 fax 093326972
Sicilia,75,"10,00","5,00",,,aree archeologiche,siracusa,"area archeologica della neapolis, orecchio di dionisio e teatro greco",via del teatro greco,,,"lacquisto di biglietti non pu pi essere effettuato tramite bonifico sul contocorrente dellamministrazione regionale. per informazioni rivolgersi al concessionario thekey srl, amministrazionethekeygroup.eu",,"tutti i giorni dalle 8,30 alle 19,45. chiusura biglietteria 18.30",siracusa,,,,,,http//www.regione.sicilia.it/beniculturali/dirbenicult/database/page musei/pagina musei.aspid55ampidsito75,,,,093166206
Sicilia,76,gratuito,gratuito,,,aree archeologiche,noto,area archeologica e villa romana del tellaro,contrada caddeddi,,,,,tutti i giorni dalle 8.30 alle 19.00 chiusura biglietteria 18.00,siracusa,,,,,,http//www.regione.sicilia.it/beniculturali/dirbenicult/database/page musei/pagina musei.aspid53ampidsito83,,,,0931573883
Sicilia,77,gratuito,gratuito,,,aree archeologiche,catania,ipogeo romano,via g. sanfilippo,,,,,lipogeo romano visitabile su prenotazione,catania,,,,,,http//www.regione.sicilia.it/beniculturali/dirbenicult/database/page musei/pagina musei.aspid166ampidsito30,,,,095/7150508 polomuseale.ctregione.sicilia.it poloregionalect.urpregione.sicilia.it
Sicilia,78,"6,00","3,00",,,aree archeologiche,calatafimi segesta,area archeologica segesta,case barbaro contrada barbaro s.p. 68,,,,,"apertura sempre alle ore 9.00. chiusure sino al 28 febbraio ore 17. dall1 al 26 marzo ore 18,30 dal 27 marzo al 1 ottobre ore 19.30 dal 2 al 31 ottobre ore 18,30 dal 1 novembre al 31 dicembre ore 17. ultimo ingresso unora prima della chiusura.",trapani,,,,,,http//www.regione.sicilia.it/beniculturali/dirbenicult/database/page musei/pagina musei.aspid57ampidsito91,,,,0924952356
Sicilia,79,,,,,musei e gallerie,marineo,castello beccadelli bologna,piazza castello,,,dipende dal polo regionale di palermo per i parchi e i musei archeologici.,,da marted a domenica dalle 9.30 dalle 13.30. mercoled e sabato anche dalle 9.30 alle 18.30. chiuso il luned,palermo,,,,,,http//www.regione.sicilia.it/beniculturali/dirbenicult/database/page musei/pagina musei.aspid101ampidsito110,,,,0917071425 0918726491
Sicilia,80,"2,00","2,00",,,musei e gallerie,adrano,museo regionale di adrano,piazza umberto i,,,,,aperto da luned a sabato dalle ore 9.00 alle ore 19.00. domenica dalle ore 9.00 alle ore 13.00. la prima domenica del mese dalle 9.00 alle 19.00.costo 2 euro prezzo ridotto poich parte del museo temporaneamente chiusa,catania,,,,,,http//www.regione.sicilia.it/beniculturali/dirbenicult/database/page musei/pagina musei.aspid4ampidsito35,,,,tel. 0957691622 0957602608
Sicilia,81,ingresso libero,ingresso libero,,,aree archeologiche,santa croce camerina,area archeologica caucana,via delle anticaglie frazione caucana,,,gestito dal comitato kaukana con indirizzo email comitato.kaukanagmail.com,,apertura su prenotazione telefonica. tutte le domeniche dal 30 aprile al 30 giugno dalle ore 10.00 alle 12.30 nei mesi di luglio ed agosto il mattino dalle 10.00 alle 12.30 e nel pomeriggio dalle 17.00 alle 19.30,ragusa,,,,,,http//www.regione.sicilia.it/beniculturali/dirbenicult/database/page musei/pagina musei.aspid54ampidsito70,,,,347 6974 535 distefano
Sicilia,82,"8,00","4,00",,,musei archeologici,agrigento,museo archeologico regionale di agrigento,contrada san nicola 12,,,,,"da luned a sabato 9,00 19,30 giorni festivi e domeniche 9,00 13,30. ultimo ingresso mezzora prima della chiusura. biglietto cumulativo museo parco archeologico e paesaggistico valle dei templi singolo 13,50, ridotto 7,00.",agrigento,,,,,,http//www.regione.sicilia.it/beniculturali/dirbenicult/database/page musei/pagina musei.aspid16ampidsito2,,,,0922401565 fax 092220014e mail polomuseale.agregione.sicilia.it
Sicilia,83,,,,,aree archeologiche,siracusa,tempio jonico,via del teatro greco,,,,,chiuso al pubblico per interventi di manutenzione,siracusa,,,,,,http//www.regione.sicilia.it/beniculturali/dirbenicult/database/page musei/pagina musei.aspid179ampidsito73,,,,0931 450811
Sicilia,84,"6,00","3,00",,,monumentale,favignana,ex stabilimento florio di favignana,isola di favignana,,,"per informazioni biglietteria del sito, cell. 3245631991",,"dall1 al 9 aprile sabato e domenica 10.00 14.00. dal 15 aprile al 30 maggio tutti i giorni 10.00 14.00, dall1 al 30 giugno chiusura alle 17.00. da luglio a settembre tutti i giorni 10.30 13.30 e 17.00 23.00",trapani,,,,,,http//www.regione.sicilia.it/beniculturali/dirbenicult/database/page musei/pagina musei.aspid186ampidsito150,,,,vedi sito internet della soprintendenza bb.cc.aa. di trapani
Sicilia,85,"8,00","4,00",,,musei e gallerie,siracusa,galleria regionale di palazzo bellomo di siracusa museo interdisciplinare,via capodieci 14 16,,,"20 settembre 2016 per lacquisto di stock di biglietti rivolgersi al concessionario thekey srl, amministrazionethekeygroup.eu",,"da marzo a novembre 2017 da marted a sabato dalle 9.00 alle 19.00. festivi tranne prima e terza domenica apertura dalle 14.00 alle 19.30, prima e terza domenica dalle 9.00 alle 13.30. luned chiuso.",siracusa,,,,,,http//www.regione.sicilia.it/beniculturali/dirbenicult/database/page musei/pagina musei.aspid13ampidsito72,,,,"093169511, fax 093169529"
Sicilia,86,"8,00","4,00",,,musei e gallerie,messina,museo regionale interdisciplinare di messina,viale della libert 465,,,"i giorni 15, 16 e la mattina del 17 giugno il museo sar chiuso per lultimazione dei preparativi allapertura dei nuovi settori. dopo la cerimonia di sabato 17, lingresso libero del pubblico sar garantito dalle 20.30 alle 22.30.",,dal marted al sabato ingresso dalle 9.00 alle 18.30 chiusura 19.00 domenica e festivi 9.00 12.30 chiusura 13.00. luned non festivi chiuso.,messina,,,,,,http//www.regione.sicilia.it/beniculturali/dirbenicult/database/page musei/pagina musei.aspid5ampidsito43,,,,090361292/93
Sicilia,87,gratuito,gratuito,,,aree archeologiche,naro,zona archeologica,contrada canale naro,,,,,"da luned al sabato dalle ore 8,00 alle ore 14,00. tutte le domeniche e le festivit chiusura totale",agrigento,,,,,,,,,,centralino soprintendenza bb.cc.aa. di agrigento 0922552611
Sicilia,88,,,,,aree archeologiche,gela,area archeologica acropoli molino a vento,corso vittorio emanuele 1,,,"apertura fino alle ore 13,00 tutte le domeniche di giugno e luglio.biglietto unico con il museo archeologico regionale di gela.",,"in ora solare, dal luned al sabato, dalle 9,30 alle 13,00 e dalle 14,00 alle 18,00 ultimo ingresso ore 17,30. chiuso i festivi tranne la prima domenica di ogni mese, dalle 9,00 alle 13,00 ultimo ingresso ore 12,30",caltanissetta,,,,,,http//www.regione.sicilia.it/beniculturali/dirbenicult/database/page musei/pagina musei.aspid37ampidsito22,,,,0933912626
Sicilia,89,gratuito,gratuito,,,aree archeologiche,san cataldo,area archeologica vassallaggi,contrada vassallaggi,,,per ragioni di sicurezza il sito non temporaneamente visitabile.,,visitabile su prenotazione inviando richiesta a sopriclregione.sicilia.it,caltanissetta,,,,,,http//www.regione.sicilia.it/beniculturali/dirbenicult/database/page musei/pagina musei.aspid164ampidsito25,,,,0934554964
Sicilia,90,"4,00","2,00",,,aree archeologiche,patti,villa romana di patti,via giovanni xxiii 2 patti marina,,,"dal 1 settembre 2015 istituito il biglietto unico per la visita della villa romana di patti marina e dellarea archeologica di tindari, con tariffa intera di 8,00 e ridotta di 4,00, la cui validit di tre giorni dalla data di emissione.",,"maggio, giugno, luglio e agosto ore 0900/1900. dal 1 al 15 settembre ore 0900/1830 dal 16 al 30 settembre ore 0900/1800.",messina,,,,,,http//www.regione.sicilia.it/beniculturali/dirbenicult/database/page musei/pagina musei.aspid42ampidsito49,,,,0941361593
Sicilia,91,"8,00","4,00",,,musei e gallerie,palermo,galleria regionale della sicilia di palazzo abatellis di palermo museo interdisciplinare,via alloro 4,,,prima domenica del mese ingresso gratuito. possibilit di biglietto cumulativo.,,"da marted a venerd 9.00 18.30 sabato, domenica e festivi 9.00 13.00. luned chiuso.",palermo,,,,,,http//www.regione.sicilia.it/beniculturali/dirbenicult/database/page musei/pagina musei.aspid7ampidsito54,,,,"telefono 0916230011, fax 0916165305, urp 0916230068, biglietteria 0916230047e mailpolomuseale.paregione.sicilia.ithttps//www.facebook.com/galleriaregionaledellasiciliadipalazzoabatellisfrefts"
Sicilia,92,,,,,monumentale,taormina,palazzo ciampoli,corso umberto,,,,,"prossima apertura, orari in attesa di definizione",messina,,,,,,,,,,"09036746433, urp della soprintendenza di messina"
Sicilia,93,"6,00","3,00",,,aree archeologiche,catania,teatro romano e odeon di catania,via vittorio emanuele 266,,,"in occasione dellevento organizzato in collaborazione con taobuk premio sicilia a isabel allende, sabato 3 giugno, il teatro antico chiuder alle ore 17.00",,da luned a domenica dalle ore 9.00 alle ore 19.00. la prima domenica del mese lingresso gratuito,catania,,,,,,http//www.regione.sicilia.it/beniculturali/dirbenicult/database/page musei/pagina musei.aspid147ampidsito29,,,,095/7150508 fax 095/311004 polomuseale.ctregione.sicilia.it poloregionalect.urp.regione.sicilia.it
Sicilia,94,gratuito,gratuito,,,musei archeologici,palazzolo acreide,museo archeologico di palazzo cappellani,via gaetano italia 36,,,,,"luned e festivi dalle 14,00 alle 19,00, chiusura biglietteria 18,00. dal marted al sabato dalle 9,00 alle 19,00, chiusura biglietteria 18,00",siracusa,,,,,,http//www.regione.sicilia.it/beniculturali/dirbenicult/database/page musei/pagina musei.aspid326ampidsito172,,,,0931875575
Sicilia,95,gratuito,gratuito,,,aree archeologiche,gela,area archeologica bagni greci di gela,via europa,,,sito non custodito situato allinterno della struttura casa di riposo antonietta aldisio,,"libero accesso tutti i giorni dalle 9,00 alle 14,00 e dalle 15,00 alle 20,00",caltanissetta,,,,,,http//www.regione.sicilia.it/beniculturali/dirbenicult/database/page musei/pagina musei.aspid145ampidsito23,,,,0933 912626
Sicilia,96,,,,,aree archeologiche,pozzallo,torre cabrera,"pozzallo, piazza rimembranza snc",,,ingresso libero. per info ulteriori ed eventuali variazionicomune di pozzallo culturacomune.pozzallo.rg.it,,dal luned al sabato dalle ore 9 alle 12.30 e dalle ore 16.45 alle 19.45.,ragusa,,,,,,http//www.regione.sicilia.it/beniculturali/dirbenicult/database/page musei/pagina musei.aspid178ampidsito128,,,,09321839271
Sicilia,97,ingresso libero,ingresso libero,,,monumentale,catania,chiesa di san francesco borgia,via crociferi 17,,,,,"da luned a sabato dalle 9,00 alle 19,00. aperta la prima domenica di ogni mese dalle 9,00 alle 19,00. ulteriori domeniche del mese 9.00 13.00. festivi 9.00 13.00.",catania,,,,,,,,,,095310762
Sicilia,98,"4,00","2,00",,,aree archeologiche e antiquarium,termini imerese,area archeologica e antiquarium di himera,contrada buonfornello,,,dipende dal polo regionale di palermo per i parchi e i musei archeologici. visita allarea archeologica della citt alta dalle 9.30 alle 13.30.,,"feriali 9.30 13.30 e 14.30 18.30, domeniche e festivi 9,30 13,30. prima domenica del mese ingresso gratuito. luned chiusura. la biglietteria chiude trenta minuti prima delluscita",palermo,,,,,,http//www.regione.sicilia.it/beniculturali/dirbenicult/database/page musei/pagina musei.aspid50ampidsito65,,,,"tel. 0918140128 e 0918140906, fax 0918140906 indirizzo email poloarcheologico.pa.uo5regione.sicilia.it"
Sicilia,99,gratuito,gratuito,,,aree archeologiche,capo dorlando,area archeologica di capo dorlando,contrada bagnoli,,,,,tutti i giorni compresi i festivi da aprile a settembre 0900/1900.,messina,,,,,,http//www.regione.sicilia.it/beniculturali/dirbenicult/database/page musei/pagina musei.aspid168ampidsito46,,,,0941955401
Sicilia,100,gratuito,gratuito,,,aree archeologiche,santangelo muxaro,area archeologica di santangelo muxaro,necropoli santangelo muxaro,,,,,"giorni ferialiaperto tutti i giorni dalle 8,30 alle 19domeniche e festivit infrasettimanaliaperto dalle 8,30 alle 13,30",agrigento,,,,,,http//www.regione.sicilia.it/beniculturali/dirbenicult/database/page musei/pagina musei.aspid159ampidsito15,,,,0922 919806
Sicilia,101,gratuito,gratuito,,,aree archeologiche,canicatti,zona archeologica vito soldano,zona archeologica di vito soldano canicattss 122 trazzera canicatt castrofilippo,,,,,"da luned al sabato dalle ore 8,00 alle ore 14,00. tutte le domeniche e le festivit chiusura totale",agrigento,,,,,,,,,,centralino soprintendenza bb.cc.aa. di agrigento 0922552611
Sicilia,102,"10,00","5,00",,,aree archeologiche,piazza armerina,area archeologica della villa romana del casale a piazza armerina,contrada casale,,,,,"tutti i giorni, festivi compresi, la biglietteria rimarr aperta dalle ore 9,00 alle ore 18,00, il cancello sar chiuso alle ore 19,00. lingresso libero ogni prima domenica di ogni mese.",enna,,,,,,http//www.regione.sicilia.it/beniculturali/dirbenicult/database/page musei/pagina musei.aspid39ampidsito124,,,,0935680036
Sicilia,103,"4,00","2,00",,,musei archeologici e aree archeologiche,giardini naxos,museo archeologico regionale e area archeologica di naxos,"via lungomare schis, giardini naxos messina sicily italy",,,audio tour link izi.travel https//izi.travel/it/italia/guide di citta in sicilia taorminascarica app su izitravel,,www.parconaxostaormina.it aperto tutti i giorni dalle 9.00 ad unora prima del tramonto,messina,,,,,,http//www.regione.sicilia.it/beniculturali/dirbenicult/database/page musei/pagina musei.aspid41ampidsito120,,,,direzione 0942628738 museo e area archeologica 094251001 fax 0942571813
Sicilia,104,"4,00","2,00",,,musei e gallerie,catania,casa museo giovanni verga,"via santanna, 8 catania.",,,,,tutti i giorni dalle ore 9.00 alle ore 13.15 e dalle 14.15 alle 19.00.chiusura domenica e festivi.,catania,,,,,,http//www.regione.sicilia.it/beniculturali/dirbenicult/database/page musei/pagina musei.aspid3ampidsito27,,,,0957150598
Sicilia,105,"2,00",,,,monumentale,siracusa,castello maniace,isola di ortigia,,,orari validi per il mese di luglio.,,da luned a sabato dalle 8.30 alle 13.00. festivi chiuso. luned 10 luglio chiuso per lavori,siracusa,,,,,,http//www.regione.sicilia.it/beniculturali/dirbenicult/database/page musei/pagina musei.aspid102ampidsito77,,,,0931464420
Sicilia,106,"4,00","2,00",,,aree archeologiche e antiquarium,cattolica eraclea,area archeologica e antiquarium eraclea minoa,contrada minoa cattolica eraclea,,,,,"orario di apertura al pubblico dal 18 aprile al 17 settembre dalle ore 9,00 alle ore 19,00orario di apertura dal 18 settembre al 31 dicembre dalle ore 9,00 alle ore 17,00",agrigento,,,,,,http//www.regione.sicilia.it/beniculturali/dirbenicult/database/page musei/pagina musei.aspid35ampidsito9,,,,0922 846005
Sicilia,107,gratuito,gratuito,,,aree archeologiche,palermo,area archeologica villa bonanno,piazza della vittoria,,,dipende dal polo regionale di palermo per i parchi e i musei archeologici.,,"da luned a venerd dalle 9.00 alle 13,00",palermo,,,,,,http//www.regione.sicilia.it/beniculturali/dirbenicult/database/page musei/pagina musei.aspid172ampidsito60,,,,0917071317/411
Sicilia,108,gratuito,gratuito,,,aree archeologiche,san fratello,area archeologica dellantica apollonia,monte vecchio,,,,,da aprile a settembre nei giorni feriali ore 0900/1900 nei festivi da giugno a settembre ore 0900/1900.,messina,,,,,,,,,,"09036746433, urp soprintendenza di messina"
Sicilia,109,,,,,aree archeologiche,mazzarino,area archeologica di sophiana,mazzarino contrada sofiana s.p. 25,,,chiuso al pubblico. per informazioni urpmuseo.casaleregione.sicilia.it oppure visita www.villaromanadelcasale.it.,,visitabile su prenotazione,caltanissetta,,,,,,http//www.regione.sicilia.it/beniculturali/dirbenicult/database/page musei/pagina musei.aspid165ampidsito129,,,,0935 687667
Sicilia,110,"4,00","2,00",,,aree archeologiche,modica,area archeologica di cava dispica,"modica, s.p. modica cava ispica snc",,,dipende dal polo regionale di ragusa per i siti archeologici e per i parchi archeologici di kamarina e cava ispica,,"dal 1 aprile tutti i giorni, festivi compresi, dalle 9 alle 18.30.",ragusa,,,,,,http//www.regione.sicilia.it/beniculturali/dirbenicult/database/page musei/pagina musei.aspid52ampidsito69,,,,0932771667
Sicilia,111,"6,00","3,00",,,musei e gallerie,terrasini,museo regionale di terrasini,lungomare peppino impastato,,,,,"luned chiuso, da marted a domenica dalle 0900 alle 1900.ingresso gratuito la prima domenica del mese.",palermo,,,,,,http//www.regione.sicilia.it/beniculturali/dirbenicult/database/page musei/pagina musei.aspid8ampidsito66,,,,centralino 091.8810989 personale di custodia 091.8683327e mail poloartemoderna.pa.ou3regione.sicilia.it
Sicilia,112,,,,,monumentale,taormina,castello di tauro,,,,,,chiuso per ristrutturazione,messina,,,,,,http//www.regione.sicilia.it/beniculturali/dirbenicult/database/page musei/pagina musei.aspid143ampidsito115,,,,090 36746435 urp
Sicilia,113,gratuito,gratuito,,,aree archeologiche,acquedolci,area archeologica. grotta di san teodoro,contrada favara,,,,,"tutti i giorni compresi i festivi da aprile a settembre, ore 0900/1900.",messina,,,,,,,,,,0941730005
Sicilia,114,"4,00","2,00",,,musei archeologici,caltanissetta,museo regionale interdisciplinare di caltanissetta,contrada santo spirito,,,,,"tutti i giorni 9,00 13,00 e 15,30 19,00. chiuso lultimo luned del mese",caltanissetta,,,,,,http//www.regione.sicilia.it/beniculturali/dirbenicult/database/page musei/pagina musei.aspid18ampidsito16,,,,0934567062 fax 0934567086
Sicilia,115,"4,00","2,00",,,musei archeologici,gela,museo archeologico regionale di gela,corso vittorio emanuele 1,,,apertura tutte le domeniche di giugno e luglio,,"in ora solare da luned a sabato, dalle 9,00 alle 19,00 ultimo ingresso ore 18,30. chiuso i festivi tranne la prima domenica di ogni mese con ingresso libero.",caltanissetta,,,,,,http//www.regione.sicilia.it/beniculturali/dirbenicult/database/page musei/pagina musei.aspid19ampidsito19,,,,0933912626
Sicilia,116,gratuito,gratuito,,,antiquaria,sciacca,zona archeologica di tranchina,contrada tranchina sciacca,,,,,"da luned a venerd dalle 9 alle 13,00. tutti i sabati,le domeniche e le festivit chiusura totale",agrigento,,,,,,,,,,centralino soprintendenza bb.cc.aa. di agrigento 0922552611
Sicilia,117,gratuito,gratuito,,,monumentale,spadafora,castello di spadafora,via nazionale,,,,,"tutti i giorni dalle 9,00 alle 19,00. domenica e festivi su prenotazione",messina,,,,,,http//www.regione.sicilia.it/beniculturali/dirbenicult/database/page musei/pagina musei.aspid144ampidsito116,,,,090 36894435 urp
Sicilia,118,"6,00","3,00",,,musei archeologici,aidone,museo regionale di aidone,largo torres truppia 1,,,"prevista vendita biglietti ridotti e cumulativi di due o tre siti tra area arch. di morgantina, museo di aidone e villa del casale.",,"aperto tutti i giorni, compresi i festivi, dalle 8,30 alle 19,30,orario continuatoultimo ingresso alle ore 18.00",enna,,,,,,http//www.regione.sicilia.it/beniculturali/dirbenicult/database/page musei/pagina musei.aspid22ampidsito40,,,,093587307
Sicilia,119,ingresso libero,ingresso libero,,,aree archeologiche,san cipirello,area archeologica monte jato,"sede uffici contrada perciana case dalia, 90040 san cipirello/monreale",,,"dipende dal polo regionale di palermo per i parchi e i musei archeologici. per visitare larea scavi, posta a 900 metri, consigliabile calzare scarpe e indossare abiti adeguati.",,"area archeologica da marted a sabato 9,30 16,00 ultimo ingresso ore 14,00. domeniche e festivi 9,30 13,30 ultimo ingresso ore 12,00. antiquarium 9,30 18,30. domeniche e festivi 9,30 13,00. lunedi chiusura",palermo,,,,,,http//www.regione.sicilia.it/beniculturali/dirbenicult/database/page musei/pagina musei.aspid94ampidsito64,,,,0918577943
Sicilia,120,"4,00","2,00",,,monumentale,partanna,castello grifeo,piazza b. graffeo,,,"biglietto cumulativo dingresso con il parco archeologico di selinunte, con tariffa intera di 6,00 e ridotta di 3,00, la cui validit di giorni tre dalla data di emissione",,"tutti i giorni dalle 9,30 alle 12,30 e dalle 15,30 alle 18,30. la biglietteria chiude mezzora prima.",trapani,,,,,,http//www.regione.sicilia.it/beniculturali/dirbenicult/database/page musei/pagina musei.aspid185ampidsito151,,,,0924 923970
Sicilia,121,gratuito,gratuito,,,monumentale,messina,monastero maria ss. della valle badiazza,alveo del torrente scala badiazza,,,,,"su richiesta dei visitatori, previo contatto telefonico con la segreteria dellassociazione il centauro olnus come da avviso affisso allingresso della chiesa e pubblicato sul sito dellassociazione www.ilcentauroolnus.org.",messina,,,,,,,,,,39 348 88 31 172
Sicilia,122,gratuito,gratuito,,,musei archeologici,palermo,museo archeologico regionale antonino salinas di palermo,"piazza olivella uffici via bara allolivella 24, palermo",,,"n.b. la biglietteria cessa il servizio mezzora prima della chiusura.biblioteca orari di apertura luned,marted,gioved,venerd ore 9,30 13,30 mercoled9,30 17,30.",,"estivi da marted a sabato, dalle 9.30 alle 18,30. domeniche e festivi dalle 9,30 alle 13,30. luned chiuso",palermo,,,,,,http//www.regione.sicilia.it/beniculturali/dirbenicult/database/page musei/pagina musei.aspid27ampidsito53,,,,0916116807 0916116806 fax 0916110740
Sicilia,123,"6,00","3,00",,,aree archeologiche,sambuca di sicilia,area archeologica di monte adranone,contrada adragna sambuca di sicilia,,,il biglietto comprende lingresso alla zona archeologica di monte adranone / museo di palazzo panitteri sambuca di sicilia / antiquarium di monte kronio sciacca.,,"da luned a sabato dalle 9 alle 19.00. prima domenica di ogni mese dalle 9.00 alle 13.00.tutte le altre domeniche, comprese le festivit chiusura totale",agrigento,,,,,,http//www.regione.sicilia.it/beniculturali/dirbenicult/database/page musei/pagina musei.aspid158ampidsito12,,,,0925 946083
Sicilia,124,"4,00","2,00",,,monumentale,riesi,complesso minerario di trabia tallarita,contrada palladio ex centrale elettrica palladio,,,per ragioni di sicurezza visitabile soltanto larea del museo delle solfare,,"giugno luglio da luned a domenica, dalle ore 8,00 alle ore 19,30.",caltanissetta,,,,,,http//www.regione.sicilia.it/beniculturali/dirbenicult/database/page musei/pagina musei.aspid99ampidsito136,,,,0934554964
Sicilia,125,gratuito,gratuito,,,aree archeologiche,aci catena,area archeologica santa venera al pozzo,via alimena 7,,,,,"da luned a sabato dalle ore 9.00 alle ore 13,30",catania,,,,,,http//www.regione.sicilia.it/beniculturali/dirbenicult/database/page musei/pagina musei.aspid93ampidsito34,,,,0957150508 uffici del polo museale
Sicilia,126,"4,00","2,00",,,aree archeologiche,siracusa,area archeologica castello eurialo,piazza eurialo 1,,,,,luglio 2017 chiuso,siracusa,,,,,,http//www.regione.sicilia.it/beniculturali/dirbenicult/database/page musei/pagina musei.aspid103ampidsito74,,,,0931711773
Sicilia,127,"2,00","1,00",,,monumentale,scicli,convento della croce,"scicli, collina della croce snc",,,aperture straordinarie solo su prenotazione ai numeri indicati. la prima domenica del mese ingresso gratuito. dipende dal polo regionale di ragusa per i siti archeologici e per i parchi archeologici di kamarina e cava ispica,,tutti i giorni feriali dalle 9 alle 13. festivi solo la prima domenica del mese,ragusa,,,,,,http//www.regione.sicilia.it/beniculturali/dirbenicult/database/page musei/pagina musei.aspid98ampidsito137,,,,0932249440/456 infopolomuseale.rgregione.sicilia.it
Sicilia,128,"4,00","2,00",,,aree archeologiche,taormina,museo naturalistico regionale di isolabella e villa caronia,"via nazionale 109 taormina, sicily, italy",,,per motivi di sicurezza lafflusso dei visitatori sar regolato in gruppi di non pi 15 unitaudio tour link izi.travel https//izi.travel/it/italia/guide di citta in sicilia taorminaaudio tour scarica app su izitravel,,"dalle 9.00 alle 16, chiuso il luned. maggiori informazioni su www.parconaxostaormina.it, vedi orari e modalit di visita. possibile biglietto unico per la visita di naxos e isolabella intero 6, ridotto 3 validit giorni tre",messina,,,,,,http//www.regione.sicilia.it/beniculturali/dirbenicult/database/page musei/pagina musei.aspid154ampidsito114,,,,tel 0942628738 fax 0942628738
Sicilia,129,gratuito,gratuito,,,monumentale,casalvecchio siculo,abbazia e monastero dei ss. pietro e paolo dagr,contrada san pietro,,,,,da luned a venerd dalle 9 alle 13. mercoled dalle 15.30 alle 17.30. domenica e festivi su prenotazione,messina,,,,,,,,,,"09036746433, urp della soprintendenza di messina"
